id,type,url,street,city,postalCode,raoSocial,latitude,longitude,minutsLatitude,minutsLongitude,RENTADOR,CANVI,SUPER,LAVABO,PARKING,VENDING
1000,box,,"Carrer dels llacs, 1",GUISSONA,,,41.781,1.278,41° 46' 51'',1° 16' 40'',,,,,,
1001,box,,Crta. Autovia A-2 Km. 545,JORBA,,,41.602,1.541,41° 36' 07'',1° 32' 27'',,,,,,
1002,box,,Av. Urgell s/n,CERVERA,,,41.673,1.2637,41° 40' 22'',1° 15' 49'',,,,,,
1003,box,,"Crta. C-12, cruilla amb Ctra. C-223",FLIX,,,41.2415417,0.5442913,41° 14' 29'',0° 32' 39'',,,,,,
1004,box,,Ctra de Reus a Riudoms Km 2,REUS,,,41.1459523,1.0843609,41° 08' 45'',1° 05' 03'',,,,,,
1005,box,,C/ Indústria S/N,TORREFARRERA,,,41.6634619,0.6035387,41° 39' 48'',0° 36' 12'',,,,,,
1006,box,,"Av. de Bertran i Güell, 17",GAVÀ,,,41.3000232,2.0089452,41° 18' 00'',2° 00' 32'',,,,,,
1007,box,,"Pol. Ind. Can Trias, C/Ramon Llull",VILADECAVALLS,,,41.5627186,1.9791105,41° 33' 45'',1° 58' 44'',,,,,,
1008,box,,"Pol. Ind. ""Els Dolors"" C/ Sallent, 50",MANRESA,,,41.7371819,1.841083,41° 44' 13'',1° 50' 27'',,,,,,
1009,box,,Pol. Ind. Colomer C/Lleida,GOLMÉS,,,41.6304801,0.9143858,41° 37' 49'',0° 54' 51'',,,,,,
1010,box,,"Av. de Barcelona, 26",TÀRREGA,,,41.6526147,1.1492518,41° 39' 09'',1° 08' 57'',,,,,,
1011,box,,"Av. Madrid, 44",ÒDENA,,,41.577437,1.656985,41° 34' 38'',1° 39' 25'',,,,,,
1012,box,,"Av. Sant Carles de la Ràpita, 226",AMPOSTA,,,40.6988768,0.5791692,40° 41' 55'',0° 34' 45'',,,,,,
1013,box,,"Pol. Ind. Camins Nous. C/ Dels Cerç, 2",MÓRA D'EBRE,,,41.0848906,0.6249078,41° 05' 05'',0° 37' 29'',,,,,,
1014,box,,Pol. Ind. el Segre Parc. 201,LLEIDA,,,41.6156436,0.6493231,41° 36' 56'',0° 38' 57'',,,,,,
1015,box,,"Pol. Ind. Les Tapies II, pacel. 6A",L'HOSPITALET DE L'INFANT,,,41.0070255,0.9110363,41° 00' 25'',0° 54' 39'',,,,,,
1017,box,,"Av de la Generalitat, 10",AGRAMUNT,,,41.7821235,1.1040338,41° 46' 55'',1° 06' 14'',,,,,,
1018,box,,"Pol. Ind. Plans de Jort, C/Lleida, Parcela 4",MONTBLANC,,,41.386742,1.156869,41° 23' 12'',1° 09' 24'',,,,,,
1019,box,,"Crta. BV-20005 Km 4, 7",TORRELLES DE LLOBREGAT,,,41.365718,1.9848545,41° 21' 56'',1° 59' 05'',,,,,,
1020,box,,"C/ De Mataró, 12",VIC,,,41.9395523,2.2491035,41° 56' 22'',2° 14' 56'',,,,,,
1021,box,,"C/ la Pedrosa, 10",MASQUEFA,,,41.4997806,1.818876,41° 29' 59'',1° 49' 07'',,,,,,
1022,box,,"Crta. L800 Km 1,850",ALCARRÀS,,,41.5775456,0.5159481,41° 34' 39'',0° 30' 57'',,,,,,
1023,box,,"Pol. Ind. Sub 7 Bis, Parcela 2",FRAGA,,,41.5251901,0.3653238,41° 31' 30'',0° 21' 55'',,,,,,
1024,box,,"Crta. N-340 Km. 1215, 5",SANT CUGAT DE SESGARRIGUES,,,41.3557778,1.7426523,41° 21' 20'',1° 44' 33'',,,,,,
1025,box,,Crta LV-3003,TORÀ,,,41.807665,1.403707,41° 48' 27'',1° 24' 13'',,,,,,
1026,box,,"Polígon el Francolí, 4",TARRAGONA,,,41.807841,1.403387,41° 48' 28'',1° 24' 12'',,,,,,
1027,box,,"Av. Goles de L'Ebre, 7",DELTEBRE,,,40.7235083,0.724997222,40° 43' 24'',0° 43' 29'',,,,,,
1028,box,,"Ptda. Santa Llúcia, Parcela 1",SOLSONA,,,41.985462,1.550053,41° 59' 07'',1° 33' 00'',,,,,,
1029,box,,"TALLER RODI MOTOR SERVICES. CTRA. TÀRREGA, KM. 5 Nº10 (HOSTALNOU)",BALAGUER,,,41.788172,0.823916,41° 47' 17'',0° 49' 26'',,,,,,
1030,box,,Crta. Ponts s/n,GUISSONA (Enginyeria),,,41.7914518,1.28573189,41° 47' 29'',1° 17' 08'',,,,,,
1031,box,,"Av. GENERALITAT, 49",GUISSONA (Pl. del Triangle),,,41.7827987,1.2903469,41° 46' 58'',1° 17' 25'',,,,,,
1032,box,,"Pol. Ind. LES ERES, PARC 7",L'ESPLUGA DE FRANCOLI,,,41.40298,1.10438,41° 24' 10'',1° 06' 15'',,,,,,
1033,box,,C/ Ponent amb Camí de la Morana,GUISSONA (Oficines Centrals),,,41.784874,1.286511,41° 47' 05'',1° 17' 11'',,,,,,
1034,box,,CTRA. N-240 KM 133,BINÉFAR,,,41.85528,0.28294,41° 51' 19'',0° 16' 58'',,,,,,
1035,box,,Pol. Ind. VALLS CRTA.DEL PLA 180,VALLS,,,41.304305899,1.2626579824,41° 18' 15'',1° 15' 45'',,,,,,
1036,box,,CTRA. N-240 KM 71,BORGES BLANQUES,,,41.53298,0.84249,41° 31' 58'',0° 50' 32'',,,,,,
1038,box,,"CTRA C13 KM. 82,6",TREMP,,,42.147299,0.89343,42° 08' 50'',0° 53' 36'',,,,,,
1039,box,,"ctra. Montcada, 666",TERRASSA,,,41.5576603,2.0356323,41° 33' 27'',2° 02' 08'',,,,,,
1040,box,,"C/ Can Millans, 1",MONTCADA,,,41.5089768,2.1881449,41° 30' 32'',2° 11' 17'',,,,,,
1041,box,,Pol. Ind. LES GARRIGUES PARCELA 24,CALAF,,,41.7317236,1.5149892,41° 43' 54'',1° 30' 53'',,,,,,
1042,box,,"C/ Barceloneta, 2",BELLPUIG,,,41.6275278,1.008271,41° 37' 39'',1° 00' 29'',,,,,,
1043,box,,"TALLER RODI MOTOR SERVICES. Pol. Las Salinas. C/ Osca, 11",SANT BOI DE LLOBREGAT,,,41.3352829,2.0484599,41° 20' 07'',2° 02' 54'',,,,,,
1045,box,,Ctra. GI-600 km 4,BLANES,,,41.6842148,2.7696871,41° 41' 03'',2° 46' 10'',,,,,,
1046,box,,"Av/ Pompeu Fabra, 7",PONTS,,,41.9128275,1.1859703,41° 54' 46'',1° 11' 09'',,,,,,
1047,box,,Crta. C-14z km 100-102,ARTESA DE SEGRE,,,41.8895167,1.0498566,41° 53' 22'',1° 02' 59'',,,,,,
1060,box,,"C/ BALLOBART, 13",HUESCA,,,42.1283472,-0.4167855,42° 07' 42'',-0° 25' 00'',,,,,,
1061,box,,"CARRER DE L'ALEMANYA, 26",IGUALADA,,,41.5875626,1.6271364,41° 35' 15'',1° 37' 37'',,,,,,
1063,box,,C/ Verge de l'Horta s/n,IVARS D'URGELL,,,41.6813137,0.9911036,41° 40' 52'',0° 59' 27'',,,,,,
1064,box,,Pol. Ind Pont cremat parc 2,ARBUCIES,,,41.8104318,2.531599115,41° 48' 37'',2° 31' 53'',,,,,,
1065,box,,Pol. Ind. Els Salancons,SORT,,,42.4053237,1.129609417,42° 24' 19'',1° 07' 46'',,,,,,
1066,box,,Concepció Arenal 98,BARCELONA,,,41.422508,2.1839217,41° 25' 21'',2° 11' 02'',,,,,,
1067,box,,"Crta. De Montblanc C-240, Km 69",VERDÚ,,,41.6116895,1.1288161,41° 36' 42'',1° 07' 43'',,,,,,
1068,box,,"C/ PRINCIPAL, 66",SANT RAMON,,,41.7260759,1.3654074,41° 43' 33'',1° 21' 55'',,,,,,
1069,box,,"Avinguda Parlament, 23",TERRASSA,,,41.5813382,2.0106231,41° 34' 52'',2° 00' 38'',,,,,,
1070,box,,"Carrer Francesc Macià, 74",SANT BOI DE LLOBREGAT,,,41.339865,2.0410877,41° 20' 23'',2° 02' 27'',,,,,,
1072,box,,"Avinguda Catalunya, 42",SANTA COLOMA DE GRAMENET,,,41.4577611,2.2037803,41° 27' 27'',2° 12' 13'',,,,,,
1073,box,,"Crta. Sitges, 77",SANT PERE DE RIBES,,,41.2587967,1.7751739,41° 15' 31'',1° 46' 30'',,,,,,
1074,box,,"C/ ALEMANYA, 9-13",MATARÓ,,,41.5461984,2.4308487,41° 32' 46'',2° 25' 51'',,,,,,
1075,box,,"CARRER CALDETAS, 6",EL PRAT DE LLOBREGAT,,,41.3229069,2.0970375,41° 19' 22'',2° 05' 49'',,,,,,
1076,box,,"Carretera Nacional II, nº17",FORNELLS DE LA SELVA,,,41.934891,2.79747819,41° 56' 05'',2° 47' 50'',,,,,,
1077,box,,"C/ Conca,4",BARCELONA,,,41.4132927,2.1806074,41° 24' 47'',2° 10' 50'',,,,,,
1078,box,,"FRANCISCO VITORIA, 11",TERRASSA,,,41.5698952,2.00282619,41° 34' 11'',2° 00' 10'',,,,,,
1079,box,,"PERE BADIA,16",TORREDEMBARRA,,,41.1444584,1.4025193,41° 08' 40'',1° 24' 09'',,,,,,
1080,box,,C/ Carrilet s/n,BELLVÍS,,,41.6716415,0.817680117,41° 40' 17'',0° 49' 03'',,,,,,
