id,type,url,street,city,postalCode,raoSocial,latitude,longitude,minutsLatitude,minutsLongitude,RENTADOR,CANVI,SUPER,LAVABO,PARKING,VENDING
A,BENZINERA,https://www.bonarea.com/benzinera/A,"CR L-313 KM 14,5",GUISSONA,25210,E.S. bonÀrea Guissona A,41.78194,1.27805,41° 46' 54'',1° 16' 40'',1,1,1,1,1,1
G002,BENZINERA,https://www.bonarea.com/benzinera/G002,POL. IND. EL SEGRE PARCELA 201,LLEIDA,25191,E.S. bonÀrea Lleida fabrica G002,41.615747,0.648654,41° 36' 56'',0° 38' 55'',,,,,,
G004,BENZINERA,https://www.bonarea.com/benzinera/G004,Crta. de Vic s/n,MOIA,08180,E.S. bonÀrea Moià G004,41.8082127,2.0979496,41° 48' 29'',2° 05' 52'',,,,,,
G005,BENZINERA,https://www.bonarea.com/benzinera/G005,"CTRA. DE MONTBLANC C-240,KM 69",VERDU,25340,E.S. bonÀrea Verdú G005,41.61,1.13,41° 36' 36'',1° 07' 48'',1,,,,,
G006,BENZINERA,https://www.bonarea.com/benzinera/G006,Crta de Pallargues s/n,LES PALLARGUES,25212,E.S. bonÀrea Pallargues G006,41.759728,1.197853,41° 45' 35'',1° 11' 52'',,,,,,
G010,BENZINERA,https://www.bonarea.com/benzinera/G010,"A VERGE DEL CLAUSTRE,32",GUISSONA,25210,E.S. bonÀrea Closa G010,41.78818,1.28653,41° 47' 17'',1° 17' 11'',,,,,,
G011,BENZINERA,https://www.bonarea.com/benzinera/G011,Crta.de Satago s/n,BUJARALOZ,50177,E.S. bonÀrea Bujaraloz G011,41.47596,-0.15314,41° 28' 33'',-0° 09' 11'',1,1,,,,
G013,BENZINERA,https://www.bonarea.com/benzinera/G013,Cl/PONENT  S/N,PONTS,25740,E.S. bonÀrea Ponts G013,41.90676,1.19335,41° 54' 24'',1° 11' 36'',1,,,,,1
G014,BENZINERA,https://www.bonarea.com/benzinera/G014,Pl.ind. El Segre parc 202,LLEIDA,25191,E.S. bonÀrea Lleida G014,41.615767,0.649495,41° 36' 56'',0° 38' 58'',1,1,,,,1
G015,BENZINERA,https://www.bonarea.com/benzinera/G015,Pol.Ind.Navesma / Avda.Generalitat 10,AGRAMUNT,25310,E.S. bonÀrea Agramunt G015,41.782403,1.104783,41° 46' 56'',1° 06' 17'',1,1,,,,1
G016,BENZINERA,https://www.bonarea.com/benzinera/G016,Pol.Ind.Les Garriges Parcela 24,CALAF,08280,E.S. bonÀrea Calaf G016,41.73321,1.52683,41° 43' 59'',1° 31' 36'',1,1,,,,1
G017,BENZINERA,https://www.bonarea.com/benzinera/G017,"Ctra N240 Km,71","BORGES BLANQUES, LES",25400,E.S. bonÀrea Borges G017,41.53298,0.84249,41° 31' 58'',0° 50' 32'',,1,,,,
G018,BENZINERA,https://www.bonarea.com/benzinera/G018,Pol.Ind.Pont Cremat Parcela 2,ARBUCIES,17401,E.S. bonÀrea Arbúcies G018,41.81048,2.531533,41° 48' 37'',2° 31' 53'',1,,,,,1
G019,BENZINERA,https://www.bonarea.com/benzinera/G019,Carretera LV-3003,TORA,25750,E.S. bonÀrea Torà G019,41.807665,1.403707,41° 48' 27'',1° 24' 13'',1,1,,,,1
G020,BENZINERA,https://www.bonarea.com/benzinera/G020,"Ctra C14 KM 82,6",PALAU DE NOGUERA,25633,E.S. bonÀrea Palau de Noguera G020,42.147299,0.89343,42° 08' 50'',0° 53' 36'',1,1,,,,1
G021,BENZINERA,https://www.bonarea.com/benzinera/G021,"Av Urgell, S/N",CERVERA,25200,E.S. bonÀrea Cervera G021,41.67326,1.263621,41° 40' 23'',1° 15' 49'',1,1,,,,1
G022,BENZINERA,https://www.bonarea.com/benzinera/G022,"POLIGON INDUSTRIAL CAMPLLONG, C/ MISTRAL, 19",BALAGUER,25600,E.S. bonÀrea Balaguer G022,41.775252,0.818789,41° 46' 30'',0° 49' 07'',1,1,,,,
G024,BENZINERA,https://www.bonarea.com/benzinera/G024,"Crta L800 Km 1,85",ALCARRAS,25180,E.S. bonÀrea Alcarràs G024,41.57762,0.51669,41° 34' 39'',0° 31' 00'',1,1,,1,,
G025,BENZINERA,https://www.bonarea.com/benzinera/G025,"Pg Industrial les Eres, Parcela 7","ESPLUGA DE FRANCOLI, L'",43440,E.S. bonÀrea Espluga de Francolí G025,41.40298,1.10438,41° 24' 10'',1° 06' 15'',1,1,,1,,
G026,BENZINERA,https://www.bonarea.com/benzinera/G026,"C/MATARO,CANTONADA SOT DELS PRADALS",VIC,08500,E.S. bonÀrea Vic G026,41.93972,2.24909,41° 56' 22'',2° 14' 56'',1,,,1,,
G027,BENZINERA,https://www.bonarea.com/benzinera/G027,Pol.Ind ELS SALACONS P A1/A4,SORT,25560,E.S. bonÀrea Sort G027,42.409381,1.130549,42° 24' 33'',1° 07' 49'',1,1,,,,1
G028,BENZINERA,https://www.bonarea.com/benzinera/G028,CRTA C-12 CRUILLA C-233,FLIX,43750,E.S. bonÀrea Flix G028,41.23952,0.55105,41° 14' 22'',0° 33' 03'',1,1,,1,,
G029,BENZINERA,https://www.bonarea.com/benzinera/G029,"Pol.Id. Plans de Jort,c/Lleida,parcela 4",MONTBLANC,43400,E.S. bonÀrea Montblanc G029,41.386742,1.156869,41° 23' 12'',1° 09' 24'',1,,,1,,
G030,BENZINERA,https://www.bonarea.com/benzinera/G030,"PG Ind. Els Colomers, C/ Lleida, 35",GOLMES,25241,E.S. bonÀrea Golmés G030,41.63032,0.91403,41° 37' 49'',0° 54' 50'',1,1,,,,
G031,BENZINERA,https://www.bonarea.com/benzinera/G031,"Pg.Ind.Camins Nou,Parc.1",MORA D'EBRE,43740,E.S. bonÀrea Móra d'Ebre G031,41.084624,0.626256,41° 05' 04'',0° 37' 34'',1,1,,1,,
G032,BENZINERA,https://www.bonarea.com/benzinera/G032,Ctra N-240 Km 133,BINEFAR,22500,E.S. bonÀrea Binéfar G032,41.85528,0.28294,41° 51' 19'',0° 16' 58'',1,1,,1,,
G033,BENZINERA,https://www.bonarea.com/benzinera/G033,"Pol. Ind. de Torrefarrera,C/Marinada S/N",TORREFARRERA,25123,E.S. bonÀrea Torrefarrera G033,41.664056,0.604624,41° 39' 50'',0° 36' 16'',1,1,1,1,1,
G034,BENZINERA,https://www.bonarea.com/benzinera/G034,"POLIGONO INDUSTRIAL SUB 7 BIS,PARCELA 2",FRAGA,22520,E.S. bonÀrea Fraga G034,41.525054,0.367624,41° 31' 30'',0° 22' 03'',1,1,,,,
G035,BENZINERA,https://www.bonarea.com/benzinera/G035,"C/EUGENIO DE USANDIZAGA,38",MONZON,22400,E.S. bonÀrea Monzón G035,41.918749,0.186993,41° 55' 07'',0° 11' 13'',1,1,,,,
G036,BENZINERA,https://www.bonarea.com/benzinera/G036,"CRTA D'ARTESA A TREMP,KM 51",VILAMITJANA,25620,E.S. bonÀrea Vilamitjana G036,42.141187,0.929836,42° 08' 28'',0° 55' 47'',1,1,,,,
G037,BENZINERA,https://www.bonarea.com/benzinera/G037,POL.IND. CAN TRIAS,VILADECAVALLS,08232,E.S. bonÀrea Viladecavalls G037,41.562567,1.979034,41° 33' 45'',1° 58' 44'',1,1,,,,
G038,BENZINERA,https://www.bonarea.com/benzinera/G038,P. I. les Gavarreres Avda. Madrid 38-44,ODENA,08711,E.S. bonÀrea Odena G038,41.577437,1.656985,41° 34' 38'',1° 39' 25'',1,1,,1,1,
G039,BENZINERA,https://www.bonarea.com/benzinera/G039,AVDA. DE LA RAPITA 226,AMPOSTA,43870,E.S. bonÀrea Amposta G039,40.698883,0.579255,40° 41' 55'',0° 34' 45'',1,1,,1,,
G041,BENZINERA,https://www.bonarea.com/benzinera/G041,CL SOTA EL BARRI DE LA CREU SANT PERE,JORBA,08719,E.S. bonÀrea Jorba G041,41.602843,1.539901,41° 36' 10'',1° 32' 23'',1,1,1,1,1,
G042,BENZINERA,https://www.bonarea.com/benzinera/G042,"AV.BERTRAN GUEL,17",GAVA,08850,E.S. bonÀrea Gavà G042,41.299974,2.008942,41° 17' 59'',2° 00' 32'',1,1,,,,1
G043,BENZINERA,https://www.bonarea.com/benzinera/G043,"Ptda. Santa Llúcia, Parcela 1",SOLSONA,25280,E.S. bonÀrea Solsona G043,41.985462,1.550053,41° 59' 07'',1° 33' 00'',1,1,,1,1,
G044,BENZINERA,https://www.bonarea.com/benzinera/G044,"Polig. Ind Les Tapies II, pacel. 6A","HOSPITALET DE L'INFANT, L'",43890,E.S. bonÀrea Hospitalet de l'Infant G044,41.007028,0.911,41° 00' 25'',0° 54' 39'',1,1,,,,
G045,BENZINERA,https://www.bonarea.com/benzinera/G045,"CTRA DE RIUDOMS,KM 2,2",REUS,43206,E.S. bonÀrea Reus G045,41.145601,1.085197,41° 08' 44'',1° 05' 06'',1,1,1,,1,
G046,BENZINERA,https://www.bonarea.com/benzinera/G046,Autovia A-2 KM. 311,ZARAGOZA,50010,E.S. bonÀrea Zaragoza G046,41.63273,-0.983963,41° 37' 57'',-0° 59' 02'',1,1,,,,
G047,BENZINERA,https://www.bonarea.com/benzinera/G047,"Poligon Ind. La Pedrosa, pacel. 5",MASQUEFA,08783,E.S. bonArea Masquefa G047,41.499528,1.822028,41° 29' 58'',1° 49' 19'',1,1,,,,
G048,BENZINERA,https://www.bonarea.com/benzinera/G048,Carretera del Mig 146,"HOSPITALET DE LLOBREGAT, L'",08907,E.S. bonÀrea L'Hospitalet de Llobregat G048,41.353884,2.103526,41° 21' 13'',2° 06' 12'',1,1,,,,
G049,BENZINERA,https://www.bonarea.com/benzinera/G049,"Carrer Estiu, 18-20",BADALONA,08918,E.S. bonÀrea Badalona G049,41.430277,2.2273888,41° 25' 48'',2° 13' 38'',1,1,,1,,
G051,BENZINERA,https://www.bonarea.com/benzinera/G051,CL. DINAMARCA S/N,UTEBO,50180,E.S. bonÀrea Utebo G051,41.710885,-1.019607,41° 42' 39'',-1° 01' 10'',1,1,,1,,
G052,BENZINERA,https://www.bonarea.com/benzinera/G052,"CL. SALLENT, 50",MANRESA,08240,E.S. bonÀrea Manresa G052,41.737297,1.841842,41° 44' 14'',1° 50' 30'',1,1,,1,1,
G053,BENZINERA,https://www.bonarea.com/benzinera/G053,"CARRETERA BV-2005 KM4,7",TORRELLES DE LLOBREGAT,08629,E.S. bonÀrea Torrelles G053,41.365572,1.98513,41° 21' 56'',1° 59' 06'',1,1,,,,
G054,BENZINERA,https://www.bonarea.com/benzinera/G054,"Avda. Barcelona, 26",TARREGA,25300,E.S. bonArea Tàrrega G054,41.6524972,1.149708333,41° 39' 08'',1° 08' 58'',1,1,,,,
G055,BENZINERA,https://www.bonarea.com/benzinera/G055,"C/. BALLOBAR, 11",HUESCA,22004,E.S. bonArea Huesca G055,42.1282028,-0.416780555,42° 07' 41'',-0° 25' 00'',1,1,,1,,
G056,BENZINERA,https://www.bonarea.com/benzinera/G056,Carrer de Can Gurri s/n,Parets del Valles,08150,E.S. bonÀrea Parets del Valles G056,41.56768,2.2439,41° 34' 03'',2° 14' 38'',1,1,,,,
G058,BENZINERA,https://www.bonarea.com/benzinera/G058,"CR. N-340 KM. 1215,500",SANT CUGAT SESGARRIGUES,08798,E.S. bonÀrea S. Cugat Sesgarrigues G058,41.3557778,1.7426523,41° 21' 20'',1° 44' 33'',1,1,1,1,1,
G059,BENZINERA,https://www.bonarea.com/benzinera/G059,"POLIG. IND. FRANCOLI, 4",TARRAGONA,43006,E.S. bonArea Tarragona G059,41.1140806,1.2252305555,41° 06' 50'',1° 13' 30'',1,1,,1,,
G060,BENZINERA,https://www.bonarea.com/benzinera/G060,"Avda. Goles de l'Ebre, 7",DELTEBRE,43006,E.S. bonÀrea Deltebre G060,40.7235083,0.724997222,40° 43' 24'',0° 43' 29'',1,1,,,,
G061,BENZINERA,https://www.bonarea.com/benzinera/G061,POL.IND.VALLS CRTA.DEL PLA 180,VALLS,43800,E.S. bonÀrea Valls G061,41.304305899,1.2626579824,41° 18' 15'',1° 15' 45'',1,1,1,1,,
G062,BENZINERA,https://www.bonarea.com/benzinera/G062,"CR N-340, VALENCIA-BARCELONA, KM. 60,70",VILA-REAL,12540,E.S. bonArea Vila-real G062,39.949861,-0.085083,39° 56' 59'',-0° 05' 06'',1,1,,1,,
G066,BENZINERA,https://www.bonarea.com/benzinera/G066,"CAMI DEL CORRAL DE DIAGO, 4",ONDA,12200,E.S. bonÀrea Onda G066,39.955047607421875,-0.2022669017314911,39° 57' 18'',-0° 12' 08'',1,1,,,,
G067,BENZINERA,https://www.bonarea.com/benzinera/G067,Carrer Fusteries 4-6,Cambrils,43850,E.S. bònArea Cambrils G067,41.078481,1.039547,41° 04' 42'',1° 02' 22'',1,1,,,,
G071,BENZINERA,https://www.bonarea.com/benzinera/G071,"Cr. Zaragoza, PG 29, Parce 183 (LAS ERAS)",VILLANUEVA DE GALLEGO,50830,E.S. bonÀrea Villanueva de Gallego G071,41.7774306,-0.828447222,41° 46' 38'',-0° 49' 42'',1,1,,1,,
N,BENZINERA,https://www.bonarea.com/benzinera/N,Ptda.Leseres Polig.4,ANGLESOLA,25320,E.S. bonÀrea Anglesola,41.657152,1.0792,41° 39' 25'',1° 04' 45'',,,,,,
42301,BOTIGA,https://www.bonarea.com/botiga/42301,CACERES 8,BARCELONA,,,41.375005186165616,2.1334075927734375,41° 22' 30'',2° 08' 00'',,,,,,
42302,BOTIGA,https://www.bonarea.com/botiga/42302,SANT DOMENEC 6,SANT CUGAT DEL VALLES,,,41.47314411895786,2.0818233489990234,41° 28' 23'',2° 04' 54'',,,,,,
42303,BOTIGA,https://www.bonarea.com/botiga/42303,LLUÇA 54,BARCELONA,,,41.383239,2.130286,41° 22' 59'',2° 07' 49'',,,,,,
42305,BOTIGA,https://www.bonarea.com/botiga/42305,CL ARNAU D'OMS 54,BARCELONA,,,41.43088670022889,2.177460193634033,41° 25' 51'',2° 10' 38'',,,,,,
42310,BOTIGA,https://www.bonarea.com/botiga/42310,PUJOS 56,"HOSPITALET DE LLOBREGAT, L'",,,41.372889,2.117611,41° 22' 22'',2° 07' 03'',,,,,,
42316,BOTIGA,https://www.bonarea.com/botiga/42316,AV DE LA RIERA DE CASSOLES 2,BARCELONA,,,41.401422916001316,2.15132474899292,41° 24' 05'',2° 09' 04'',,,,,,
42318,BOTIGA,https://www.bonarea.com/botiga/42318,MANSO 66,BARCELONA,,,41.378028,2.162523,41° 22' 40'',2° 09' 45'',,,,,,
42319,BOTIGA,https://www.bonarea.com/botiga/42319,LAFORJA 81,BARCELONA,,,41.396106,2.144758,41° 23' 45'',2° 08' 41'',,,,,,
42321,BOTIGA,https://www.bonarea.com/botiga/42321,RAMON TURRO 220,BARCELONA,,,41.401155,2.204696,41° 24' 04'',2° 12' 16'',,,,,,
42323,BOTIGA,https://www.bonarea.com/botiga/42323,ALTS FORNS 63,BARCELONA,,,41.3586,2.140686,41° 21' 30'',2° 08' 26'',,,,,,
42327,BOTIGA,https://www.bonarea.com/botiga/42327,ARNUS 17,BADALONA,,,41.449439528568355,2.246030867099762,41° 26' 57'',2° 14' 45'',,,,,,
42328,BOTIGA,https://www.bonarea.com/botiga/42328,PS DEL DOCTOR MORAGAS 199,BARBERA DEL VALLES,,,41.516637,2.12365,41° 30' 59'',2° 07' 25'',,,,,,
42330,BOTIGA,https://www.bonarea.com/botiga/42330,SAGUNT 87,BADALONA,,,41.445055,2.241943,41° 26' 42'',2° 14' 30'',,,,,,
42333,BOTIGA,https://www.bonarea.com/botiga/42333,AV. VERGE DE MONTSERRAT 212,"PRAT DE LLOBREGAT, EL",,,41.32385978495817,2.0887836813926697,41° 19' 25'',2° 05' 19'',,,,,,
42335,BOTIGA,https://www.bonarea.com/botiga/42335,PASAJE AMETLLERS 6,ESPLUGUES DE LLOBREGAT,,,41.371115,2.084438,41° 22' 16'',2° 05' 03'',,,,,,
42339,BOTIGA,https://www.bonarea.com/botiga/42339,MARE DE DEU DELS DESAMPARATS 13,BARCELONA,,,41.401622,2.159308,41° 24' 05'',2° 09' 33'',,,,,,
42348,BOTIGA,https://www.bonarea.com/botiga/42348,CONSELL DE CENT 463,BARCELONA,,,41.398696,2.175808,41° 23' 55'',2° 10' 32'',,,,,,
42349,BOTIGA,https://www.bonarea.com/botiga/42349,LA MINA 25,"HOSPITALET DE LLOBREGAT, L'",,,41.371770651407516,2.101111114025116,41° 22' 18'',2° 06' 04'',,,,,,
42351,BOTIGA,https://www.bonarea.com/botiga/42351,DELICIAS 14,ZARAGOZA,,,41.651927926393384,-0.9055352210998535,41° 39' 06'',-0° 54' 19'',,,,,,
42352,BOTIGA,https://www.bonarea.com/botiga/42352,AVDA. FRANCESC MACIA 12,VILANOVA I LA GELTRU,,,41.22365756400029,1.7240756750106812,41° 13' 25'',1° 43' 26'',,,,,,
42357,BOTIGA,https://www.bonarea.com/botiga/42357,AV DR PASTEUR 16,IGUALADA,,,41.587111656285735,1.6126137971878052,41° 35' 13'',1° 36' 45'',,,,,,
42358,BOTIGA,https://www.bonarea.com/botiga/42358,SANT PERE MES BAIX 30,BARCELONA,,,41.38699189111202,2.177216112613678,41° 23' 13'',2° 10' 37'',,,,,,
42363,BOTIGA,https://www.bonarea.com/botiga/42363,NOU   47,RIPOLLET,,,41.49800120897458,2.156893014907837,41° 29' 52'',2° 09' 24'',,,,,,
42365,BOTIGA,https://www.bonarea.com/botiga/42365,CABANYAL 4,BARCELONA,,,41.407860711077916,2.189554274082184,41° 24' 28'',2° 11' 22'',,,,,,
42367,BOTIGA,https://www.bonarea.com/botiga/42367,DE PIERA 45,MARTORELL,,,41.47768786566956,1.9192036986351013,41° 28' 39'',1° 55' 09'',,,,,,
42374,BOTIGA,https://www.bonarea.com/botiga/42374,ROCAFORT 56,BARCELONA,,,41.37801615797651,2.155012786388397,41° 22' 40'',2° 09' 18'',,,,,,
42376,BOTIGA,https://www.bonarea.com/botiga/42376,MIQUEL BIADA 121,MATARO,,,41.536962487291795,2.433275878429413,41° 32' 13'',2° 25' 59'',,,,,,
42378,BOTIGA,https://www.bonarea.com/botiga/42378,LLUIS PUIGJANER 2,OLESA DE MONTSERRAT,,,41.543228242952445,1.8928751349449158,41° 32' 35'',1° 53' 34'',,,,,,
42382,BOTIGA,https://www.bonarea.com/botiga/42382,PZ MAGDALENA TRIAS 7,GAVA,,,41.307416912266426,2.0021483302116394,41° 18' 26'',2° 00' 07'',,,,,,
42384,BOTIGA,https://www.bonarea.com/botiga/42384,"SANT MIQUEL, 34","MASNOU, EL",,,41.48090708120268,2.316916286945343,41° 28' 51'',2° 19' 00'',,,,,,
42390,BOTIGA,https://www.bonarea.com/botiga/42390,EMPORDA 6,BARBERA DEL VALLES,,,41.51014196990784,2.117440402507782,41° 30' 36'',2° 07' 02'',,,,,,
42393,BOTIGA,https://www.bonarea.com/botiga/42393,CRAYWINCKEL 8,BARCELONA,,,41.41202079685359,2.1393728256225586,41° 24' 43'',2° 08' 21'',,,,,,
42397,BOTIGA,https://www.bonarea.com/botiga/42397,VITORIA 4,MATARO,,,41.53925324247598,2.425784468650818,41° 32' 21'',2° 25' 32'',,,,,,
42398,BOTIGA,https://www.bonarea.com/botiga/42398,AV GENERALITAT 91,TORTOSA,,,40.807907768314536,0.520203709602356,40° 48' 28'',0° 31' 12'',,,,,,
42400,BOTIGA,https://www.bonarea.com/botiga/42400,AV.TARRAGONA 22,VILAFRANCA DEL PENEDES,,,41.34359300610214,1.6974413394927979,41° 20' 36'',1° 41' 50'',,,,,,
42401,BOTIGA,https://www.bonarea.com/botiga/42401,FELIX LATASSA 28,ZARAGOZA,,,41.6417882044429,-0.8930280804634094,41° 38' 30'',-0° 53' 34'',,,,,,
42408,BOTIGA,https://www.bonarea.com/botiga/42408,CL LOPEZ DE HOYOS 108,MADRID,,,40.44376070237167,-3.6746960878372192,40° 26' 37'',-3° 40' 28'',,,,,,
42413,BOTIGA,https://www.bonarea.com/botiga/42413,MANUEL BESCOS 1,HUESCA,,,42.13406157152217,-0.40752679109573364,42° 08' 02'',-0° 24' 27'',,,,,,
42414,BOTIGA,https://www.bonarea.com/botiga/42414,CAMINO DE LA BARCA 1,BARBASTRO,,,42.03480716361616,0.1306450366973877,42° 02' 05'',0° 07' 50'',,,,,,
42416,BOTIGA,https://www.bonarea.com/botiga/42416,CARRIO 31,MANRESA,,,41.72874669032413,1.822931170463562,41° 43' 43'',1° 49' 22'',,,,,,
42417,BOTIGA,https://www.bonarea.com/botiga/42417,CAVALLERS 18,PALAFRUGELL,,,41.917055,3.163504,41° 55' 01'',3° 09' 48'',,,,,,
42422,BOTIGA,https://www.bonarea.com/botiga/42422,DEL TORRENTO 29,LLORET DE MAR,,,41.70037771612106,2.8448018431663513,41° 42' 01'',2° 50' 41'',,,,,,
42424,BOTIGA,https://www.bonarea.com/botiga/42424,VILARDELL 35,BARCELONA,,,41.37456842266314,2.1450188755989075,41° 22' 28'',2° 08' 42'',,,,,,
42427,BOTIGA,https://www.bonarea.com/botiga/42427,"CL BONAVISTA, 70",SANT JUST DESVERN,,,41.38340375899247,2.0772287249565125,41° 23' 00'',2° 04' 38'',,,,,,
42430,BOTIGA,https://www.bonarea.com/botiga/42430,BONVIATGE 26,SANT JOAN DESPI,,,41.36576208129659,2.057640552520752,41° 21' 56'',2° 03' 27'',,,,,,
42432,BOTIGA,https://www.bonarea.com/botiga/42432,PASSEIG DE LA PAU 16,BERGA,,,42.100268293586616,1.844455897808075,42° 06' 00'',1° 50' 40'',,,,,,
42434,BOTIGA,https://www.bonarea.com/botiga/42434,EUROPA 173,"HOSPITALET DE LLOBREGAT, L'",,,41.3559881631087,2.1129879355430603,41° 21' 21'',2° 06' 46'',,,,,,
42435,BOTIGA,https://www.bonarea.com/botiga/42435,AV.MENENDEZ PIDAL 14,HUESCA,,,42.138095266716455,-0.41702717542648315,42° 08' 17'',-0° 25' 01'',,,,,,
42436,BOTIGA,https://www.bonarea.com/botiga/42436,DEL PI 3,ESPARREGUERA,,,41.534059275194956,1.8707817792892456,41° 32' 02'',1° 52' 14'',,,,,,
42437,BOTIGA,https://www.bonarea.com/botiga/42437,RAMON Y CAJAL 27,SANT FELIU DE LLOBREGAT,,,41.379749,2.041995,41° 22' 47'',2° 02' 31'',,,,,,
42441,BOTIGA,https://www.bonarea.com/botiga/42441,GONZALEZ 19,CERDANYOLA DEL VALLES,,,41.49063007020506,2.144729197025299,41° 29' 26'',2° 08' 41'',,,,,,
42442,BOTIGA,https://www.bonarea.com/botiga/42442,VALENCIA 18,TORTOSA,,,40.814893239842235,0.5181732773780823,40° 48' 53'',0° 31' 05'',,,,,,
42445,BOTIGA,https://www.bonarea.com/botiga/42445,"BERLIN, 20",BARCELONA,,,41.382715,2.137911,41° 22' 57'',2° 08' 16'',,,,,,
42447,BOTIGA,https://www.bonarea.com/botiga/42447,AV MORERA 101,BADALONA,,,41.462052,2.248236,41° 27' 43'',2° 14' 53'',,,,,,
42454,BOTIGA,https://www.bonarea.com/botiga/42454,INDUSTRIA I MOLI DE LA SAL 4,CANOVELLES,,,41.61576316720303,2.280392646789551,41° 36' 56'',2° 16' 49'',,,,,,
42456,BOTIGA,https://www.bonarea.com/botiga/42456,ALFONS IV 85,GRANOLLERS,,,41.60338551026787,2.287881374359131,41° 36' 12'',2° 17' 16'',,,,,,
42458,BOTIGA,https://www.bonarea.com/botiga/42458,CL MERCAT 6,"LLAGOSTA, LA",,,41.513333463132255,2.1935105323791504,41° 30' 48'',2° 11' 36'',,,,,,
42460,BOTIGA,https://www.bonarea.com/botiga/42460,VILLARROEL 137,BARCELONA,,,41.38679065506765,2.154639959335327,41° 23' 12'',2° 09' 16'',,,,,,
42462,BOTIGA,https://www.bonarea.com/botiga/42462,PS DE JAUME I 28,MONTCADA I REIXAC,,,41.482299613654234,2.1889400482177734,41° 28' 56'',2° 11' 20'',,,,,,
42464,BOTIGA,https://www.bonarea.com/botiga/42464,AV MAS D'EN SERRA 14,"ROQUETES, LES",,,41.23020169635274,1.7456567287445068,41° 13' 48'',1° 44' 44'',,,,,,
42468,BOTIGA,https://www.bonarea.com/botiga/42468,AV RAMON Y CAJAL 3,"ALMUNIA DE DOÑA GODINA, LA",,,41.47877100285302,-1.3756191730499268,41° 28' 43'',-1° 22' 32'',,,,,,
42469,BOTIGA,https://www.bonarea.com/botiga/42469,AV ARAGON 59,ALCAÑIZ,,,41.048251789021286,-0.12958019971847534,41° 02' 53'',-0° 07' 46'',,,,,,
42473,BOTIGA,https://www.bonarea.com/botiga/42473,ARIBAU 2,BADALONA,,,41.4352785716902,2.2192704677581787,41° 26' 07'',2° 13' 09'',,,,,,
42475,BOTIGA,https://www.bonarea.com/botiga/42475,RIERA BASTE 31,SANT BOI DE LLOBREGAT,,,41.34599933309105,2.035346031188965,41° 20' 45'',2° 02' 07'',,,,,,
42476,BOTIGA,https://www.bonarea.com/botiga/42476,POMPEU FABRA 14,CASTELLBISBAL,,,41.476327387567785,1.9814229011535645,41° 28' 34'',1° 58' 53'',,,,,,
42479,BOTIGA,https://www.bonarea.com/botiga/42479,PL MIRAMAR 3,MONT-ROIG DEL CAMP,,,41.0863342478166,0.9606921672821045,41° 05' 10'',0° 57' 38'',,,,,,
42481,BOTIGA,https://www.bonarea.com/botiga/42481,"PASSATGE BURRULL, 6",BARCELONA,,,41.40397195676433,2.197595536708832,41° 24' 14'',2° 11' 51'',,,,,,
42482,BOTIGA,https://www.bonarea.com/botiga/42482,CL SANTA EUGENIA 48,GIRONA,,,41.980602776073326,2.814771831035614,41° 58' 50'',2° 48' 53'',,,,,,
42483,BOTIGA,https://www.bonarea.com/botiga/42483,SANT JOAN 43,"AMETLLA DE MAR, L'",,,40.88488392182237,0.8033376932144165,40° 53' 05'',0° 48' 12'',,,,,,
42484,BOTIGA,https://www.bonarea.com/botiga/42484,CL INDEPENDENCIA 156,BADALONA,,,41.45901848861653,2.241862714290619,41° 27' 32'',2° 14' 30'',,,,,,
42485,BOTIGA,https://www.bonarea.com/botiga/42485,PL LLIVIA 6,SABADELL,,,41.56946313796986,2.0840388536453247,41° 34' 10'',2° 05' 02'',,,,,,
42489,BOTIGA,https://www.bonarea.com/botiga/42489,"CR DE BARCELONA, 652",SABADELL,,,41.525471349151644,2.120511531829834,41° 31' 31'',2° 07' 13'',,,,,,
42490,BOTIGA,https://www.bonarea.com/botiga/42490,"CR DOCTOR MARTI JULIA, 50","HOSPITALET DE LLOBREGAT, L'",,,41.37410347764757,2.1218955516815186,41° 22' 26'',2° 07' 18'',,,,,,
42495,BOTIGA,https://www.bonarea.com/botiga/42495,CL SEBASTIA JOAN ARBO 17,DELTEBRE,,,40.71579367691009,0.7362449169158936,40° 42' 56'',0° 44' 10'',,,,,,
42496,BOTIGA,https://www.bonarea.com/botiga/42496,CL VALLE DE ZURIZA 19,ZARAGOZA,,,41.6612637,-0.872266,41° 39' 40'',-0° 52' 20'',,,,,,
42497,BOTIGA,https://www.bonarea.com/botiga/42497,CL MARE DE DEU DE LORDA 109,BADALONA,,,41.44036183209058,2.2186481952667236,41° 26' 25'',2° 13' 07'',,,,,,
42498,BOTIGA,https://www.bonarea.com/botiga/42498,"AV PIO XII, 18",VILLARREAL,,,39.935045866702914,-0.10196685791015625,39° 56' 06'',-0° 06' 07'',,,,,,
42501,BOTIGA,https://www.bonarea.com/botiga/42501,CARRETERA DE VALLS 9,SANTA MARGARIDA DE MONTBUI,,,41.57776432080809,1.607426404953003,41° 34' 39'',1° 36' 26'',,,,,,
42502,BOTIGA,https://www.bonarea.com/botiga/42502,CL LLEIDA S/N,"SENIA, LA",,,40.63530363716194,0.28317689895629883,40° 38' 07'',0° 16' 59'',,,,,,
42503,BOTIGA,https://www.bonarea.com/botiga/42503,CL LEOPOLDO ROMEO 18,ZARAGOZA,,,41.6467964,-0.8646463,41° 38' 48'',-0° 51' 52'',,,,,,
42504,BOTIGA,https://www.bonarea.com/botiga/42504,RONDA SANT RAMON 177,SANT BOI DE LLOBREGAT,,,41.334488432203166,2.0410430431365967,41° 20' 04'',2° 02' 27'',,,,,,
42512,BOTIGA,https://www.bonarea.com/botiga/42512,CL PABLO IGLESIAS 14,BARCELONA,,,41.442779,2.181007,41° 26' 34'',2° 10' 51'',,,,,,
42513,BOTIGA,https://www.bonarea.com/botiga/42513,"AV DEL TORRENT, 32",ESPLUGUES DE LLOBREGAT,,,41.374904549673914,2.101038694381714,41° 22' 29'',2° 06' 03'',,,,,,
42519,BOTIGA,https://www.bonarea.com/botiga/42519,CR VELLA 114,SANT CELONI,,,41.6891540100897,2.493177652359009,41° 41' 20'',2° 29' 35'',,,,,,
42522,BOTIGA,https://www.bonarea.com/botiga/42522,CM PUENTE VIRREY 40,ZARAGOZA,,,41.63778519058497,-0.8743250370025635,41° 38' 16'',-0° 52' 27'',,,,,,
42523,BOTIGA,https://www.bonarea.com/botiga/42523,AV PAU CASALS 7,PALAFOLLS,,,41.66989851062562,2.7493178844451904,41° 40' 11'',2° 44' 57'',,,,,,
42525,BOTIGA,https://www.bonarea.com/botiga/42525,RB SANT JORDI 52,RIPOLLET,,,41.49703893020638,2.1609914302825928,41° 29' 49'',2° 09' 39'',,,,,,
42526,BOTIGA,https://www.bonarea.com/botiga/42526,CL MARIA GUERRERO 26,ZARAGOZA,,,41.64370242713782,-0.9105348587036133,41° 38' 37'',-0° 54' 37'',,,,,,
42527,BOTIGA,https://www.bonarea.com/botiga/42527,CL TRES TOMBS 20,MATARO,,,41.54933882771866,2.44146466255188,41° 32' 57'',2° 26' 29'',,,,,,
42528,BOTIGA,https://www.bonarea.com/botiga/42528,CL CONCORDIA 3,BARCELONA,,,41.37385389540265,2.1605730056762695,41° 22' 25'',2° 09' 38'',,,,,,
42529,BOTIGA,https://www.bonarea.com/botiga/42529,CL NARCIS MENARD 9,RUBI,,,41.49342071445858,2.031641900539398,41° 29' 36'',2° 01' 53'',,,,,,
42531,BOTIGA,https://www.bonarea.com/botiga/42531,CL COLL PUJOL 185,BADALONA,,,41.45304411751571,2.2372251749038696,41° 27' 10'',2° 14' 14'',,,,,,
42547,BOTIGA,https://www.bonarea.com/botiga/42547,CL PEDRO MARIA RIC 29,ZARAGOZA,,,41.6439830413924,-0.8821141719818115,41° 38' 38'',-0° 52' 55'',,,,,,
42551,BOTIGA,https://www.bonarea.com/botiga/42551,CL GRAN 59,SANT VICENÇ DE CASTELLET,,,41.664985552860905,1.8634378910064697,41° 39' 53'',1° 51' 48'',,,,,,
42558,BOTIGA,https://www.bonarea.com/botiga/42558,CL VINT 62,BONAVISTA,,,41.11946655311707,1.1945030093193054,41° 07' 10'',1° 11' 40'',,,,,,
42565,BOTIGA,https://www.bonarea.com/botiga/42565,"CL ANGEL GUIMERA, 103",TERRASSA,,,41.555216006907045,2.022211253643036,41° 33' 18'',2° 01' 19'',,,,,,
42568,BOTIGA,https://www.bonarea.com/botiga/42568,CL XIMEN PEREZ ARENOS 38,CASTELLO DE LA PLANA,,,39.99098839264548,-0.03962963819503784,39° 59' 27'',-0° 02' 22'',,,,,,
42571,BOTIGA,https://www.bonarea.com/botiga/42571,AV MARE DE DEU DE BELLVITGE 26,"HOSPITALET DE LLOBREGAT, L'",,,41.347978,2.10753,41° 20' 52'',2° 06' 27'',,,,,,
42577,BOTIGA,https://www.bonarea.com/botiga/42577,AV CATALUNYA 41,SANTA MARGARIDA I ELS MONJOS,,,41.321740696317114,1.664130985736847,41° 19' 18'',1° 39' 50'',,,,,,
42578,BOTIGA,https://www.bonarea.com/botiga/42578,AV CATALUNYA 116,PARETS DEL VALLES,,,41.56869657417494,2.231200933456421,41° 34' 07'',2° 13' 52'',,,,,,
42583,BOTIGA,https://www.bonarea.com/botiga/42583,CL NTRA. SENYORA DE LOURDES 15,RUBI,,,41.49464823840114,2.0373737812042236,41° 29' 40'',2° 02' 14'',,,,,,
42584,BOTIGA,https://www.bonarea.com/botiga/42584,CL LA PALMA 47,SABADELL,,,41.54503,2.087059,41° 32' 42'',2° 05' 13'',,,,,,
42586,BOTIGA,https://www.bonarea.com/botiga/42586,CL BONAVENTURA RIBERAYGUA 36,ANDORRA LA VELLA,,,42.50622909019341,1.5295270085334778,42° 30' 22'',1° 31' 46'',,,,,,
42599,BOTIGA,https://www.bonarea.com/botiga/42599,CL MAJOR 49,SANTA BARBARA,,,40.7147487105431,0.49360156059265137,40° 42' 53'',0° 29' 36'',,,,,,
42609,BOTIGA,https://www.bonarea.com/botiga/42609,CL GALLIFA 7,CUBELLES,,,41.2103655533284,1.673569679260254,41° 12' 37'',1° 40' 24'',,,,,,
42613,BOTIGA,https://www.bonarea.com/botiga/42613,CL CONCEPCION SAIZ DE OTERO 13,ZARAGOZA,,,41.66989851062562,-0.8926928043365479,41° 40' 11'',-0° 53' 33'',,,,,,
42614,BOTIGA,https://www.bonarea.com/botiga/42614,AV ONCE DE SETEMBRE 20,VILANOVA DEL VALLES,,,41.55279936266502,2.2852957248687744,41° 33' 10'',2° 17' 07'',,,,,,
42616,BOTIGA,https://www.bonarea.com/botiga/42616,PG RAMON VALL 21,NAVAS,,,41.89903492206844,1.8771922588348389,41° 53' 56'',1° 52' 37'',,,,,,
42618,BOTIGA,https://www.bonarea.com/botiga/42618,CR SANTPEDOR 107,MANRESA,,,41.735846484603876,1.8322598934173584,41° 44' 09'',1° 49' 56'',,,,,,
42627,BOTIGA,https://www.bonarea.com/botiga/42627,CL CAMI RAL 118,TORDERA,,,41.6964023768716,2.7200737595558167,41° 41' 47'',2° 43' 12'',,,,,,
42634,BOTIGA,https://www.bonarea.com/botiga/42634,CL PALAFOX 22,EJEA DE LOS CABALLEROS,,,42.12644697333329,-1.1376884579658508,42° 07' 35'',-1° 08' 15'',,,,,,
42636,BOTIGA,https://www.bonarea.com/botiga/42636,CL RIERA BUSCARONS 7,CANET DE MAR,,,41.588696496365856,2.581384778022766,41° 35' 19'',2° 34' 52'',,,,,,
42658,BOTIGA,https://www.bonarea.com/botiga/42658,CL DOCTOR ARRUGA 34,ROSES,,,42.265285,3.176689,42° 15' 55'',3° 10' 36'',,,,,,
42670,BOTIGA,https://www.bonarea.com/botiga/42670,CL PEDRO DE LA CREU 39,BARCELONA,,,41.397433,2.121669,41° 23' 50'',2° 07' 18'',,,,,,
42678,BOTIGA,https://www.bonarea.com/botiga/42678,CL LA UNION 23 BAJOS,ANDORRA,,,40.97728993900962,-0.4484438896179199,40° 58' 38'',-0° 26' 54'',,,,,,
42693,BOTIGA,https://www.bonarea.com/botiga/42693,AV MERITXELL 75,SANT JULIA DE LORIA,,,42.468553,1.492643,42° 28' 06'',1° 29' 33'',,,,,,
42906,BOTIGA,https://www.bonarea.com/botiga/42906,CL/JOAQUIMA VEDRUNA 17,MOLLERUSSA,,,41.626422252550526,0.8929100632667542,41° 37' 35'',0° 53' 34'',,,,,,
43603,BOTIGA,https://www.bonarea.com/botiga/43603,CL LAS ERAS 9,TORA,,,41.811594,1.402239,41° 48' 41'',1° 24' 08'',,,,,,
43624,BOTIGA,https://www.bonarea.com/botiga/43624,CL MOSSEN COY 4,SORT,,,42.41213215581269,1.1311331391334534,42° 24' 43'',1° 07' 52'',,,,,,
43626,BOTIGA,https://www.bonarea.com/botiga/43626,PZ DE L'AJUNTAMENT 7,ARTESA DE SEGRE,,,41.895457220530034,1.0454607009887695,41° 53' 43'',1° 02' 43'',,,,,,
43633,BOTIGA,https://www.bonarea.com/botiga/43633,PZ ONZE DE SETEMBRE 5,LINYOLA,,,41.7101743,0.9004461,41° 42' 36'',0° 54' 01'',,,,,,
43641,BOTIGA,https://www.bonarea.com/botiga/43641,PZ CARLOS ROIG 7,CAMBRILS,,,41.212683,1.139734,41° 12' 45'',1° 08' 23'',,,,,,
43654,BOTIGA,https://www.bonarea.com/botiga/43654,AV JAUME NADAL 38,ALGUAIRE,,,41.736595,0.58636,41° 44' 11'',0° 35' 10'',,,,,,
43660,BOTIGA,https://www.bonarea.com/botiga/43660,PJ PIRINEOS 23,BENABARRE,,,42.11021018291451,0.47828078269958496,42° 06' 36'',0° 28' 41'',,,,,,
43662,BOTIGA,https://www.bonarea.com/botiga/43662,CL LLEIDA 10,MAIALS,,,41.36468309670745,0.5078601837158203,41° 21' 52'',0° 30' 28'',,,,,,
1000,BOX,,"Carrer dels llacs, 1",GUISSONA,,,41.781,1.278,41° 46' 51'',1° 16' 40'',,,,,,
1001,BOX,,Crta. Autovia A-2 Km. 545,JORBA,,,41.602,1.541,41° 36' 07'',1° 32' 27'',,,,,,
1002,BOX,,Av. Urgell s/n,CERVERA,,,41.673,1.2637,41° 40' 22'',1° 15' 49'',,,,,,
1003,BOX,,"Crta. C-12, cruilla amb Ctra. C-223",FLIX,,,41.2415417,0.5442913,41° 14' 29'',0° 32' 39'',,,,,,
1004,BOX,,Ctra de Reus a Riudoms Km 2,REUS,,,41.1459523,1.0843609,41° 08' 45'',1° 05' 03'',,,,,,
1005,BOX,,C/ Indústria S/N,TORREFARRERA,,,41.6634619,0.6035387,41° 39' 48'',0° 36' 12'',,,,,,
1006,BOX,,"Av. de Bertran i Güell, 17",GAVÀ,,,41.3000232,2.0089452,41° 18' 00'',2° 00' 32'',,,,,,
1007,BOX,,"Pol. Ind. Can Trias, C/Ramon Llull",VILADECAVALLS,,,41.5627186,1.9791105,41° 33' 45'',1° 58' 44'',,,,,,
1008,BOX,,"Pol. Ind. ""Els Dolors"" C/ Sallent, 50",MANRESA,,,41.7371819,1.841083,41° 44' 13'',1° 50' 27'',,,,,,
1009,BOX,,Pol. Ind. Colomer C/Lleida,GOLMÉS,,,41.6304801,0.9143858,41° 37' 49'',0° 54' 51'',,,,,,
1010,BOX,,"Av. de Barcelona, 26",TÀRREGA,,,41.6526147,1.1492518,41° 39' 09'',1° 08' 57'',,,,,,
1011,BOX,,"Av. Madrid, 44",ÒDENA,,,41.577437,1.656985,41° 34' 38'',1° 39' 25'',,,,,,
1012,BOX,,"Av. Sant Carles de la Ràpita, 226",AMPOSTA,,,40.6988768,0.5791692,40° 41' 55'',0° 34' 45'',,,,,,
1013,BOX,,"Pol. Ind. Camins Nous. C/ Dels Cerç, 2",MÓRA D'EBRE,,,41.0848906,0.6249078,41° 05' 05'',0° 37' 29'',,,,,,
1014,BOX,,Pol. Ind. el Segre Parc. 201,LLEIDA,,,41.6156436,0.6493231,41° 36' 56'',0° 38' 57'',,,,,,
1015,BOX,,"Pol. Ind. Les Tapies II, pacel. 6A",L'HOSPITALET DE L'INFANT,,,41.0070255,0.9110363,41° 00' 25'',0° 54' 39'',,,,,,
1017,BOX,,"Av de la Generalitat, 10",AGRAMUNT,,,41.7821235,1.1040338,41° 46' 55'',1° 06' 14'',,,,,,
1018,BOX,,"Pol. Ind. Plans de Jort, C/Lleida, Parcela 4",MONTBLANC,,,41.386742,1.156869,41° 23' 12'',1° 09' 24'',,,,,,
1019,BOX,,"Crta. BV-20005 Km 4, 7",TORRELLES DE LLOBREGAT,,,41.365718,1.9848545,41° 21' 56'',1° 59' 05'',,,,,,
1020,BOX,,"C/ De Mataró, 12",VIC,,,41.9395523,2.2491035,41° 56' 22'',2° 14' 56'',,,,,,
1021,BOX,,"C/ la Pedrosa, 10",MASQUEFA,,,41.4997806,1.818876,41° 29' 59'',1° 49' 07'',,,,,,
1022,BOX,,"Crta. L800 Km 1,850",ALCARRÀS,,,41.5775456,0.5159481,41° 34' 39'',0° 30' 57'',,,,,,
1023,BOX,,"Pol. Ind. Sub 7 Bis, Parcela 2",FRAGA,,,41.5251901,0.3653238,41° 31' 30'',0° 21' 55'',,,,,,
1024,BOX,,"Crta. N-340 Km. 1215, 5",SANT CUGAT DE SESGARRIGUES,,,41.3557778,1.7426523,41° 21' 20'',1° 44' 33'',,,,,,
1025,BOX,,Crta LV-3003,TORÀ,,,41.807665,1.403707,41° 48' 27'',1° 24' 13'',,,,,,
1026,BOX,,"Polígon el Francolí, 4",TARRAGONA,,,41.807841,1.403387,41° 48' 28'',1° 24' 12'',,,,,,
1027,BOX,,"Av. Goles de L'Ebre, 7",DELTEBRE,,,40.7235083,0.724997222,40° 43' 24'',0° 43' 29'',,,,,,
1028,BOX,,"Ptda. Santa Llúcia, Parcela 1",SOLSONA,,,41.985462,1.550053,41° 59' 07'',1° 33' 00'',,,,,,
1029,BOX,,"TALLER RODI MOTOR SERVICES. CTRA. TÀRREGA, KM. 5 Nº10 (HOSTALNOU)",BALAGUER,,,41.788172,0.823916,41° 47' 17'',0° 49' 26'',,,,,,
1030,BOX,,Crta. Ponts s/n,GUISSONA (Enginyeria),,,41.7914518,1.28573189,41° 47' 29'',1° 17' 08'',,,,,,
1031,BOX,,"Av. GENERALITAT, 49",GUISSONA (Pl. del Triangle),,,41.7827987,1.2903469,41° 46' 58'',1° 17' 25'',,,,,,
1032,BOX,,"Pol. Ind. LES ERES, PARC 7",L'ESPLUGA DE FRANCOLI,,,41.40298,1.10438,41° 24' 10'',1° 06' 15'',,,,,,
1033,BOX,,C/ Ponent amb Camí de la Morana,GUISSONA (Oficines Centrals),,,41.784874,1.286511,41° 47' 05'',1° 17' 11'',,,,,,
1034,BOX,,CTRA. N-240 KM 133,BINÉFAR,,,41.85528,0.28294,41° 51' 19'',0° 16' 58'',,,,,,
1035,BOX,,Pol. Ind. VALLS CRTA.DEL PLA 180,VALLS,,,41.304305899,1.2626579824,41° 18' 15'',1° 15' 45'',,,,,,
1036,BOX,,CTRA. N-240 KM 71,BORGES BLANQUES,,,41.53298,0.84249,41° 31' 58'',0° 50' 32'',,,,,,
1038,BOX,,"CTRA C13 KM. 82,6",TREMP,,,42.147299,0.89343,42° 08' 50'',0° 53' 36'',,,,,,
1039,BOX,,"ctra. Montcada, 666",TERRASSA,,,41.5576603,2.0356323,41° 33' 27'',2° 02' 08'',,,,,,
1040,BOX,,"C/ Can Millans, 1",MONTCADA,,,41.5089768,2.1881449,41° 30' 32'',2° 11' 17'',,,,,,
1041,BOX,,Pol. Ind. LES GARRIGUES PARCELA 24,CALAF,,,41.7317236,1.5149892,41° 43' 54'',1° 30' 53'',,,,,,
1042,BOX,,"C/ Barceloneta, 2",BELLPUIG,,,41.6275278,1.008271,41° 37' 39'',1° 00' 29'',,,,,,
1043,BOX,,"TALLER RODI MOTOR SERVICES. Pol. Las Salinas. C/ Osca, 11",SANT BOI DE LLOBREGAT,,,41.3352829,2.0484599,41° 20' 07'',2° 02' 54'',,,,,,
1045,BOX,,Ctra. GI-600 km 4,BLANES,,,41.6842148,2.7696871,41° 41' 03'',2° 46' 10'',,,,,,
1046,BOX,,"Av/ Pompeu Fabra, 7",PONTS,,,41.9128275,1.1859703,41° 54' 46'',1° 11' 09'',,,,,,
1047,BOX,,Crta. C-14z km 100-102,ARTESA DE SEGRE,,,41.8895167,1.0498566,41° 53' 22'',1° 02' 59'',,,,,,
1060,BOX,,"C/ BALLOBART, 13",HUESCA,,,42.1283472,-0.4167855,42° 07' 42'',-0° 25' 00'',,,,,,
1061,BOX,,"CARRER DE L'ALEMANYA, 26",IGUALADA,,,41.5875626,1.6271364,41° 35' 15'',1° 37' 37'',,,,,,
1063,BOX,,C/ Verge de l'Horta s/n,IVARS D'URGELL,,,41.6813137,0.9911036,41° 40' 52'',0° 59' 27'',,,,,,
1064,BOX,,Pol. Ind Pont cremat parc 2,ARBUCIES,,,41.8104318,2.531599115,41° 48' 37'',2° 31' 53'',,,,,,
1065,BOX,,Pol. Ind. Els Salancons,SORT,,,42.4053237,1.129609417,42° 24' 19'',1° 07' 46'',,,,,,
1066,BOX,,Concepció Arenal 98,BARCELONA,,,41.422508,2.1839217,41° 25' 21'',2° 11' 02'',,,,,,
1067,BOX,,"Crta. De Montblanc C-240, Km 69",VERDÚ,,,41.6116895,1.1288161,41° 36' 42'',1° 07' 43'',,,,,,
1068,BOX,,"C/ PRINCIPAL, 66",SANT RAMON,,,41.7260759,1.3654074,41° 43' 33'',1° 21' 55'',,,,,,
1069,BOX,,"Avinguda Parlament, 23",TERRASSA,,,41.5813382,2.0106231,41° 34' 52'',2° 00' 38'',,,,,,
1070,BOX,,"Carrer Francesc Macià, 74",SANT BOI DE LLOBREGAT,,,41.339865,2.0410877,41° 20' 23'',2° 02' 27'',,,,,,
1072,BOX,,"Avinguda Catalunya, 42",SANTA COLOMA DE GRAMENET,,,41.4577611,2.2037803,41° 27' 27'',2° 12' 13'',,,,,,
1073,BOX,,"Crta. Sitges, 77",SANT PERE DE RIBES,,,41.2587967,1.7751739,41° 15' 31'',1° 46' 30'',,,,,,
1074,BOX,,"C/ ALEMANYA, 9-13",MATARÓ,,,41.5461984,2.4308487,41° 32' 46'',2° 25' 51'',,,,,,
1075,BOX,,"CARRER CALDETAS, 6",EL PRAT DE LLOBREGAT,,,41.3229069,2.0970375,41° 19' 22'',2° 05' 49'',,,,,,
1076,BOX,,"Carretera Nacional II, nº17",FORNELLS DE LA SELVA,,,41.934891,2.79747819,41° 56' 05'',2° 47' 50'',,,,,,
1077,BOX,,"C/ Conca,4",BARCELONA,,,41.4132927,2.1806074,41° 24' 47'',2° 10' 50'',,,,,,
1078,BOX,,"FRANCISCO VITORIA, 11",TERRASSA,,,41.5698952,2.00282619,41° 34' 11'',2° 00' 10'',,,,,,
1079,BOX,,"PERE BADIA,16",TORREDEMBARRA,,,41.1444584,1.4025193,41° 08' 40'',1° 24' 09'',,,,,,
1080,BOX,,C/ Carrilet s/n,BELLVÍS,,,41.6716415,0.817680117,41° 40' 17'',0° 49' 03'',,,,,,
43901,BUFET,https://www.bonarea.com/ca/default/bufet/guissona,AREA PROMOCIONAL - CL DELS LLACS 1,GUISSONA,,,41.781436993114994,1.2780135869979858,41° 46' 53'',1° 16' 40'',,,,,,
43903,BUFET,https://www.bonarea.com/ca/default/bufet/reus,CR RIUDOMS KM 2 2,REUS,,,41.145528,1.085083,41° 08' 43'',1° 05' 06'',,,,,,
43908,BUFET,https://www.bonarea.com/ca/default/bufet/torrefarrera,PG POL.IND.C/MARINADA S/N,TORREFARRERA,,,41.664952,0.603821,41° 39' 53'',0° 36' 13'',,,,,,
43911,BUFET,https://www.bonarea.com/ca/default/bufet/jorba,CR AUTOVIA A-2 KM 545 0,JORBA,,,41.60249499749782,1.539931297302246,41° 36' 08'',1° 32' 23'',,,,,,
140,CASH,,"Av. Verge del Claustre, 73",Guissona,,,41.7847444,1.2837175,41° 47' 05'',1° 17' 01'',,,,,,
711,CASH,,"Pol. Ind. ""Can Cunyàs"" - Dels Fusters, 10-12",Montcada i Reixac,,,41.46366,2.17399,41° 27' 49'',2° 10' 26'',,,,,,
714,CASH,,"Pol. Ind. ""La Post"" - Barcelona, 11",Gavà,,,41.3014899,0,41° 18' 05'',-0° 00' 00'',,,,,,
715,CASH,,"Crta. N-II Km. 272,5 - núm. 10",Santa Susanna,,,41.63439,2.7060000000000173,41° 38' 03'',2° 42' 21'',,,,,,
725,CASH,,"Pol. Ind. de Leganés - Rey Pastor, 38",Leganés,,,40.3319026,-3.7374508,40° 19' 54'',-3° 44' 14'',,,,,,
726,CASH,,"Pol. Ind. ""Baix Ebre"" - Av. del Japó P-85",Tortosa,,,40.7649308,0.5523786,40° 45' 53'',0° 33' 08'',,,,,,
728,CASH,,"Crta. N-420-430 - Km, 212,2",DAIMIEL,,,39.0787109,-3.5968117,39° 04' 43'',-3° 35' 48'',,,,,,
731,CASH,,"Crta. N-232 - Km. 60, nave 2",Rincón de Soto,,,42.23213,-1.8607299999999896,42° 13' 55'',-1° 51' 38'',,,,,,
737,CASH,,"Crta. N-630, Km 656",Vilafranca de los Barros,,,38.69513,-6.40501,38° 41' 42'',-6° 24' 18'',,,,,,
754,CASH,,"Tamarit de Llitera, 16",Lleida,,,41.6233842,0.6191895,41° 37' 24'',0° 37' 09'',,,,,,
756,CASH,,"POL IND LA ROUREDA C/ Nicaragua, 32",Reus,,,41.1463077,1.129146799999944,41° 08' 46'',1° 07' 44'',,,,,,
770,CASH,,"POL IND TORRES Av. dels oficis, 1",Villajoyosa,,,38.5158784,-0.2129162,38° 30' 57'',-0° 12' 46'',,,,,,
775,CASH,,"Pol. Ind. Bufalvent, Narcís Monturiol, 5",Manresa,,,41.7175722,1.8503521000000092,41° 43' 03'',1° 51' 01'',,,,,,
790,CASH,,"Pol. Ind de Palencia - Sevilla, s/n",Palencia,,,42.0003906,-4.5149236,42° 00' 01'',-4° 30' 53'',,,,,,
791,CASH,,"Pol. Ind. ""La Magantina"" - Agricultura, 12",Huesca,,,42.1459777,-0.4080329,42° 08' 45'',-0° 24' 28'',,,,,,
42570,CENTRE,https://www.bonarea.com/botiga/42570,PG POL.IND.C/MARINADA S/N,TORREFARRERA,,,41.664952,0.603821,41° 39' 53'',0° 36' 13'',,,,,,
42690,CENTRE,https://www.bonarea.com/botiga/42690,AUTOVIA A-2 545,JORBA,,,41.60249499749782,1.539931297302246,41° 36' 08'',1° 32' 23'',,,,,,
42704,CENTRE,https://www.bonarea.com/botiga/42704,CR RIUDOMS KM 2 2,REUS,,,41.145528,1.085083,41° 08' 43'',1° 05' 06'',,,,,,
42901,CENTRE,https://www.bonarea.com/botiga/42901,AREA PROMOCIONAL - CL DELS LLACS 1,GUISSONA,,,41.781436993114994,1.2780135869979858,41° 46' 53'',1° 16' 40'',,,,,,
88010,DIPOSIT,,"Crrta. RIUDOMS KM 2,2",REUS,,OLIVA ZANDALINAS LOURDES,41.13772,1.05907,41° 08' 15'',1° 03' 32'',,,,,,
88012,DIPOSIT,,CL CATERINA ALBERT 5 B,BESCANO,,AGROGIRONES S.C.,41.966014,2.774433,41° 57' 57'',2° 46' 27'',,,,,,
88015,DIPOSIT,,"AVINGUDA AGRAMUNT, 58",CERVERA,,AUS D'ONDARA S.L.,41.67631,1.269363,41° 40' 34'',1° 16' 09'',,,,,,
88065,DIPOSIT,,PLAÇA D'ESPANYA N.6,ALMENAR,,MARTI SANCHEZ CONXITA,41.7933375,0.5720003,41° 47' 36'',0° 34' 19'',,,,,,
88066,DIPOSIT,,CARRETERA MADRID 24,CALATAYUD,,DEL MONTE OCHOA BARBARA,41.3534724,-1.6480816,41° 21' 12'',-1° 38' 53'',,,,,,
88072,DIPOSIT,,CL SANT JAUME 3,MOLLERUSSA,,GERMANS DOMENJO SCP,41.621422,0.8945849,41° 37' 17'',0° 53' 40'',,,,,,
88076,DIPOSIT,,CARRETERA DE LA LLACUNA N44,SANTA COLOMA DE QUERALT,,CUSTODI ROCA JORDI,41.5300009,1.3908941,41° 31' 48'',1° 23' 27'',,,,,,
88077,DIPOSIT,,AVINGUDA LA RAPITA 226,AMPOSTA,,SUBMINISTRES I SERVEIS TORTA-RIBAS S.L.,40.69885,0.5793,40° 41' 55'',0° 34' 45'',,,,,,
88080,DIPOSIT,,"COLUNGO CALLEJON, 12",BARBASTRO,,RASO LACAMBRA S.C.,42.0363235,0.1178616,42° 02' 10'',0° 07' 04'',,,,,,
88081,DIPOSIT,,"C/ SANT CARLES, 13","SENIA, LA",,DURE MOLINE MARIA ROMINA,40.6326993,0.2878486,40° 37' 57'',0° 17' 16'',,,,,,
88082,DIPOSIT,,"CARRETERA MANLLEU,34",VIC,,ALTARRIBA BOLADERAS JOAN,41.9369054,2.2549692,41° 56' 12'',2° 15' 17'',,,,,,
88086,DIPOSIT,,C/PORTELL S/N,CINCTORRES,,MONSERRAT ARTOLA GERMAN MARIA,40.5668234,-0.2347269,40° 34' 00'',-0° 14' 05'',,,,,,
88088,DIPOSIT,,"CL. SALLENT, 50",MANRESA,,LOGISTICA CAL RIERA S.C.P.,41.73733,1.84173,41° 44' 14'',1° 50' 30'',,,,,,
88097,DIPOSIT,,CL TRAVESERA DE LES ERES 9,JUNCOSA,,IGLESFOOD S.C.P.,41.37205,0.774938,41° 22' 19'',0° 46' 29'',,,,,,
88098,DIPOSIT,,PZ REGUERETA 14,OLIANA,,PERELLA BACH SCP S.C.P.,42.06659,1.31257,42° 03' 59'',1° 18' 45'',,,,,,
88099,DIPOSIT,,CL SANTIAGO ROSSINYOL 1,BUTSENIT (MONTGAI),,GALCERAN TREPAT ALFONSO,41.801085,0.993696,41° 48' 03'',0° 59' 37'',,,,,,
88102,DIPOSIT,,CL FRANCISCO GRAU 3,BINEFAR,,VIDAL GARCIA SANTIAGO,41.849432,0.297463,41° 50' 57'',0° 17' 50'',,,,,,
88103,DIPOSIT,,"Barri de Coma, 11",CARDONA,,ESTRUCH SAIZ IGNASI,41.91737,1.686678,41° 55' 02'',1° 41' 12'',,,,,,
88107,DIPOSIT,,CARRER LLEIDA 77,TORREGROSSA,,PAMIES GARDEÑES PILAR,41.580982,0.821586,41° 34' 51'',0° 49' 17'',,,,,,
88114,DIPOSIT,,"CARRETERA, 21",VERDU,,CALAFELL BOTET MARIA MONTSERRAT,41.611326,1.139131,41° 36' 40'',1° 08' 20'',,,,,,
88116,DIPOSIT,,Carrer Italia nau 2,IGUALADA,,SERVI JORBA S.L.,41.587639,1.62551,41° 35' 15'',1° 37' 31'',,,,,,
88117,DIPOSIT,,CM COMETA 5,"ESPLUGA DE FRANCOLI, L'",,GRIÑO PUIG RAMON,41.393589,1.099776,41° 23' 36'',1° 05' 59'',,,,,,
88125,DIPOSIT,,PG POLIGON INDUSTRIAL EL COLLET 209,BENICARLO,,MONTAJES GANADEROS RYM S.L.U,40.434782,0.398512,40° 26' 05'',0° 23' 54'',,,,,,
88128,DIPOSIT,,"AVDA.SAN VICENTE RAUL,2-3",TAMARITE DE LITERA,,ROSA GARCIA MARIA CARMEN,41.87102,0.419651,41° 52' 15'',0° 25' 10'',,,,,,
88129,DIPOSIT,,CL PILAR 111,ONTIÑENA,,LAS ONTINAS SDAD.COOP.LTDA,41.674395,0.083758,41° 40' 27'',0° 05' 01'',,,,,,
88134,DIPOSIT,,CL MAJOR 195,ALCARRAS,,RAMADERIA LLORENS S.L.,41.562563,0.521631,41° 33' 45'',0° 31' 17'',,,,,,
88137,DIPOSIT,,AV ARAGON 18,BELVER DE CINCA,,"PLANA MONTAÑANA, S.L.",41.691745,0.179326,41° 41' 30'',0° 10' 45'',,,,,,
88138,DIPOSIT,,CL JAUME COSTA 6,SOLSONA,,COLILLES BRICHS JOANA,41.993582,1.52333,41° 59' 36'',1° 31' 23'',,,,,,
88143,DIPOSIT,,"Carrer Carrerada,3 Baixos","BORGES BLANQUES, LES",,GINE SAFONT ANDREU,41.519958,0.874087,41° 31' 11'',0° 52' 26'',,,,,,
88144,DIPOSIT,,CL MIQUEL PARCERISA 24,BELL-LLOC D'URGELL,,FLORENSA CLARIA TERESA,41.63137,0.781601,41° 37' 52'',0° 46' 53'',,,,,,
88147,DIPOSIT,,"PZ SALVADOR, 13",SARIÑENA,,AUTOSERVICIO MONEGROS S.L.,41.791108,-0.156988,41° 47' 27'',-0° 09' 25'',,,,,,
88149,DIPOSIT,,AV ALCALDE ALTISENT 1,TREMP,,COMPRA I VENDA DE BESTIAR BATLLE S.L.,42.163861,0.895049,42° 09' 49'',0° 53' 42'',,,,,,
88154,DIPOSIT,,CL LA MELUSA 8,ALTORRICON,,COOP DEL CAMPO SAN ISIDRO,41.798048,0.411634,41° 47' 52'',0° 24' 41'',,,,,,
88161,DIPOSIT,,CL VALL DE BOTERS 2,"GRANADELLA, LA",,SAS-CUBELLS S.C.P.,41.355676,0.665267,41° 21' 20'',0° 39' 54'',,,,,,
88340,DIPOSIT,,CL SANT JAUME 9,ISONA,,GRASA GUILLEM ROBERT,42.11661,1.04302989,42° 06' 59'',1° 02' 34'',,,,,,
88500,DIPOSIT,,"CALLE BALLOBAR,11",HUESCA,,AGROIL ARAGON S.L.,42.128354,-0.41687,42° 07' 42'',-0° 25' 00'',,,,,,
88501,DIPOSIT,,"AVDA. Santuario, 45",ALTURA,,ASENSI  PEREZ  MARIA ANGELES ,39.850499,-0.513027,39° 51' 01'',-0° 30' 46'',,,,,,
88502,DIPOSIT,,CL MOSEN ANTONIO VIVES 1,"ALBI, L'",,"AGRICOLA DE L'ALBI, SCCL",41.424602,0.937695,41° 25' 28'',0° 56' 15'',,,,,,
88503,DIPOSIT,,CL TORRA I CLOSA S N,CALAF,,ESTANY  FERRER  JOAN ,41.732079,1.516335,41° 43' 55'',1° 30' 58'',,,,,,
88504,DIPOSIT,,CL DOCTOR FLEMING 15,PONTS,,CALVERES  BADIA  ROSA ,41.914142,1.185509,41° 54' 50'',1° 11' 07'',,,,,,
88506,DIPOSIT,,SANT JAUME 111,ALMACELLES,,ALDABO  JUSTRIBO  MARIA PIA ,41.727016,0.44144,41° 43' 37'',0° 26' 29'',,,,,,
88507,DIPOSIT,,"CL. LLUIS COMPANYS, 93",MORA LA NOVA,,CASTELLVI  CEDO  JOSEFA MARIA ,41.095892,0.651889,41° 05' 45'',0° 39' 06'',,,,,,
88508,DIPOSIT,,LG CASA NOVA MARINE S N,GRANOLLERS,,CONCUSTELL TINTO MERITXELL,41.591276,2.281836,41° 35' 28'',2° 16' 54'',,,,,,
88509,DIPOSIT,,"CM. LA RATLLA CASTELLON-ALZAMORA, 124",CASTELLO DE LA PLANA,,MIRALLES  MARTIN  SALVADOR ,39.967765,-0.07698,39° 58' 03'',-0° 04' 37'',,,,,,
88510,DIPOSIT,,AV VILANOVA S N,VILANOVA DE MEIA,,TERRE  RIBO  MARINA ,41.993085,1.019938,41° 59' 35'',1° 01' 11'',,,,,,
88511,DIPOSIT,,AV ZARAGOZA 62 1,ALCAÑIZ,,ARRUFAT BARBERAN MARIA JESUS,41.052556,-0.147678,41° 03' 09'',-0° 08' 51'',,,,,,
88512,DIPOSIT,,CR. BARBASTRO - TORRALBA S/N     ,BERBEGAL,,SAMPIETRO BARRABES RUBEN ISMAEL,41.962278,-0.002337,41° 57' 44'',-0° 00' 08'',,,,,,
88513,DIPOSIT,,CL ALBI 76,CERVIA DE LES GARRIGUES,,RUBIO NOGUE ANTONI JOSEP,41.424075,0.862333,41° 25' 26'',0° 51' 44'',,,,,,
88514,DIPOSIT,,CARRER LLOSAR 114,VILLAFRANCA DEL CID,,VILAMOLI CB,40.429253,-0.259836,40° 25' 45'',-0° 15' 35'',,,,,,
88515,DIPOSIT,,AV FERIA 6,CANTAVIEJA,,GASCON  MALLEN  CARLOS ,40.525769,-0.405764,40° 31' 32'',-0° 24' 20'',,,,,,
88516,DIPOSIT,,AV PUEYO 57,MONZON,,GISTAU ZAPATER MARIA PILAR,41.906245,0.186395,41° 54' 22'',0° 11' 11'',,,,,,
88517,DIPOSIT,,"CR. DEL PLA, 285  NAU 6",VALLS,,AGRO-SUBMINISTRES VALLS S.L.U.,41.319086,1.270344,41° 19' 08'',1° 16' 13'',,,,,,
88522,DIPOSIT,,AV LLEIDA 75,BELLPUIG,,MAS JAUMEJOAN JAIME,41.632,1.00971,41° 37' 55'',1° 00' 34'',,,,,,
88523,DIPOSIT,,C/ALTARRIBA Y GODOLA 4,BERGA,,SERRA PARERA MARIA TERESA,42.10251,1.84943,42° 06' 09'',1° 50' 57'',,,,,,
88534,DIPOSIT,,"CL. Piereta, 64",PIERA,,TORRES FEIXAS JORDI,41.52327,1.75435,41° 31' 23'',1° 45' 15'',,,,,,
88535,DIPOSIT,,CL MOLI DE DUC 40,TORRELAMEU,,MORALES GIMENEZ ESTHER,41.70192,0.70332,41° 42' 06'',0° 42' 11'',,,,,,
99004,DIPOSIT,,CTRA. ARTESA DE SEGRE. KM.51,VILAMITJANA,,FABRICA DE VILAMITJANA-DPTO.,41.87644,1.1094599,41° 52' 35'',1° 06' 34'',,,,,,
99020,DIPOSIT,,AV S.SEBASTIAN 20,CASTELLSERA,,BORRELL ALSINA JORDI,41.74855,0.99102,41° 44' 54'',0° 59' 27'',,,,,,
99039,DIPOSIT,,CL DES MAYANS  NAVE 3 POL.MONTECRISTO 44,SANT ANTONI DE PORTMANY,,XICU I CATI CB,38.9826357,1.3015192,38° 58' 57'',1° 18' 05'',,,,,,
99135,DIPOSIT,,"C/ FERNANDEZ VALLEJO,80",TORRELAVEGA,,ALVASA S.C.,43.3384051,-4.0455764,43° 20' 18'',-4° 02' 44'',,,,,,
99150,DIPOSIT,,CARRETERA VIC S/N,MOIA,,FABRICA DE MOIA -DPTO-,41.808678,2.106734,41° 48' 31'',2° 06' 24'',,,,,,
99236,DIPOSIT,,"C/ MAYOR, 60",LAZAGURRIA,,FERNANDEZ DE PIEROLA Y OTROS S.L.,42.4923272,-2.239283,42° 29' 32'',-2° 14' 21'',,,,,,
99240,DIPOSIT,,CARRER DE SANT JOAN BAPTISTA DE LA SALLE 42,"SEU D'URGELL, LA",,"BOSCH FARRAS, MANEL",42.3551239,1.4588287,42° 21' 18'',1° 27' 31'',,,,,,
99301,DIPOSIT,,CL PASAJE PIRINEOS 23,BENABARRE,,CANADELL VISA JAVIER,42.1108701,0.4782779,42° 06' 39'',0° 28' 41'',,,,,,
99307,DIPOSIT,,"RONDA DE MIRASIERRA,99",HERENCIA,,"MORENO MANZANARO, FRANCISCO",39.37024,-3.3503399,39° 22' 12'',-3° 21' 01'',,,,,,
99363,DIPOSIT,,"CL LES NEROSES 10,3,1",SORT,,BONETA ANDREVA MARIA CARMEN,42.41455,1.13036,42° 24' 52'',1° 07' 49'',,,,,,
99367,DIPOSIT,,CTRA PONTS,CABANABONA,,LOCAL C.RECOLLIDA,41.8518431,1.217379,41° 51' 06'',1° 13' 02'',,,,,,
99368,DIPOSIT,,AV CHIPRANA 16 BAJOS,CASPE,,EXPLOTACIONES CIRAC -FILLOLA S.L.,41.2363535,-0.0460646,41° 14' 10'',-0° 02' 45'',,,,,,
99389,DIPOSIT,,CARRETERA DE SANGUESSA KM 96,SOS DEL REY CATOLICO,,FERNANDEZ DE PIEROLA Y OTROS S.L,42.4939837,-1.2162051,42° 29' 38'',-1° 12' 58'',,,,,,
99392,DIPOSIT,,"CTRA. RIUDOMS KM 2,500",REUS,,FABRICA DE REUS-DPTO.,41.13774,1.05878,41° 08' 15'',1° 03' 31'',,,,,,
42304,SUPER,https://www.bonarea.com/botiga/42304,CL FONT 80,"HOSPITALET DE LLOBREGAT, L'",,,41.370796,2.109984,41° 22' 14'',2° 06' 35'',,,,,,
42306,SUPER,https://www.bonarea.com/botiga/42306,FARADAY 103,TERRASSA,,,41.558468,2.00338,41° 33' 30'',2° 00' 12'',,,,,,
42307,SUPER,https://www.bonarea.com/botiga/42307,AV MATADEPERA 28,SABADELL,,,41.564849,2.090448,41° 33' 53'',2° 05' 25'',,,,,,
42308,SUPER,https://www.bonarea.com/botiga/42308,CL CONCEPCION ARENAL 98,BARCELONA,,,41.423797,2.1840359,41° 25' 25'',2° 11' 02'',,,,,,
42309,SUPER,https://www.bonarea.com/botiga/42309,EIVISSA 16,TARRAGONA,,,41.113826,1.2437230000000454,41° 06' 49'',1° 14' 37'',,,,,,
42311,SUPER,https://www.bonarea.com/botiga/42311,PROVIDENCIA 152,BARCELONA,,,41.409652,2.162432,41° 24' 34'',2° 09' 44'',,,,,,
42312,SUPER,https://www.bonarea.com/botiga/42312,TRAVESSERA DE GRACIA 354,BARCELONA,,,41.40926084705613,2.1709156036376953,41° 24' 33'',2° 10' 15'',,,,,,
42313,SUPER,https://www.bonarea.com/botiga/42313,CL MAJOR 32,"HOSPITALET DE LLOBREGAT, L'",,,41.359519,2.098684,41° 21' 34'',2° 05' 55'',,,,,,
42314,SUPER,https://www.bonarea.com/botiga/42314,SANTA EULALIA 101,"HOSPITALET DE LLOBREGAT, L'",,,41.36682897010737,2.1256399154663086,41° 22' 00'',2° 07' 32'',,,,,,
42315,SUPER,https://www.bonarea.com/botiga/42315,CL VALENCIA 331,BARCELONA,,,41.39722995900897,2.169327735900879,41° 23' 50'',2° 10' 09'',,,,,,
42317,SUPER,https://www.bonarea.com/botiga/42317,MOSSÈN JACINT VERDAGUER 152,SANTA COLOMA DE GRAMENET,,,41.4504626,2.2191235,41° 27' 01'',2° 13' 08'',,,,,,
42320,SUPER,https://www.bonarea.com/botiga/42320,CL BOGATELL 55,SANT ADRIA DE BESOS,,,41.4312073,2.218444399999953,41° 25' 52'',2° 13' 06'',,,,,,
42322,SUPER,https://www.bonarea.com/botiga/42322,PZ DEL TRIOMF 33,TERRASSA,,,41.572302555501686,2.012965679168701,41° 34' 20'',2° 00' 46'',,,,,,
42324,SUPER,https://www.bonarea.com/botiga/42324,CR DE MATA 67,MATARO,,,41.54813009999999,2.451835800000026,41° 32' 53'',2° 27' 06'',,,,,,
42325,SUPER,https://www.bonarea.com/botiga/42325,PS MARAGALL 404,BARCELONA,,,41.4291801,2.1626137000000654,41° 25' 45'',2° 09' 45'',,,,,,
42326,SUPER,https://www.bonarea.com/botiga/42326,AV GAUDI 16,MOLLET DEL VALLES,,,41.5448425,2.2179853000000094,41° 32' 41'',2° 13' 04'',,,,,,
42329,SUPER,https://www.bonarea.com/botiga/42329,ED.BOLIVIA ESC.B DE SPiSP 0,TARRAGONA,,,41.139056,1.251473,41° 08' 20'',1° 15' 05'',,,,,,
42331,SUPER,https://www.bonarea.com/botiga/42331,VISTALEGRE 44,CORNELLA DE LLOBREGAT,,,41.362351,2.075417,41° 21' 44'',2° 04' 31'',,,,,,
42332,SUPER,https://www.bonarea.com/botiga/42332,RONDA ZAMENHOF 107,SABADELL,,,41.550942,2.101832,41° 33' 03'',2° 06' 06'',,,,,,
42334,SUPER,https://www.bonarea.com/botiga/42334,GRAN VIA LLUIS COMPANYS 137 LOCAL 5,PREMIA DE MAR,,,41.4916958,2.3557432000000063,41° 29' 30'',2° 21' 20'',,,,,,
42336,SUPER,https://www.bonarea.com/botiga/42336,CL PIZARRO 26-28,SABADELL,,,41.52955,2.11562,41° 31' 46'',2° 06' 56'',,,,,,
42337,SUPER,https://www.bonarea.com/botiga/42337,CL GIRONA 70,GRANOLLERS,,,41.612043,2.291387,41° 36' 43'',2° 17' 28'',,,,,,
42338,SUPER,https://www.bonarea.com/botiga/42338,CL MARIA CRISTINA 7,TARRAGONA,,,41.118279,1.251766,41° 07' 05'',1° 15' 06'',,,,,,
42340,SUPER,https://www.bonarea.com/botiga/42340,CL ROSSELLON 489,BARCELONA,,,41.4075657,2.1762829,41° 24' 27'',2° 10' 34'',,,,,,
42341,SUPER,https://www.bonarea.com/botiga/42341,AV PAISOS CATALANS 32,BANYOLES,,,42.1169357,2.765017499999999,42° 07' 00'',2° 45' 54'',,,,,,
42342,SUPER,https://www.bonarea.com/botiga/42342,CL MAJOR 89,SALT,,,41.97589106985027,2.796642780303955,41° 58' 33'',2° 47' 47'',,,,,,
42343,SUPER,https://www.bonarea.com/botiga/42343,RB JOAQUIM RUYRA 52-54,BLANES,,,41.676829,2.7897068,41° 40' 36'',2° 47' 22'',,,,,,
42344,SUPER,https://www.bonarea.com/botiga/42344,CL DE LA CREU 47,GIRONA,,,41.9761224,2.8187882,41° 58' 34'',2° 49' 07'',,,,,,
42345,SUPER,https://www.bonarea.com/botiga/42345,SANT RAFAEL  14,OLOT,,,42.181747349216465,2.4873894453048706,42° 10' 54'',2° 29' 14'',,,,,,
42346,SUPER,https://www.bonarea.com/botiga/42346,PS MIQUEL MAS 41,CAPELLADES,,,41.532306442980094,1.6835260391235352,41° 31' 56'',1° 41' 00'',,,,,,
42347,SUPER,https://www.bonarea.com/botiga/42347,LLUIS RIBAS 27,RUBI,,,41.4885544,2.0354034,41° 29' 18'',2° 02' 07'',,,,,,
42350,SUPER,https://www.bonarea.com/botiga/42350,JOAQUIMA DE VEDRUNA 21,IGUALADA,,,41.578281,1.625379,41° 34' 41'',1° 37' 31'',,,,,,
42353,SUPER,https://www.bonarea.com/botiga/42353,AV CERDANYOLA 21,SANT CUGAT DEL VALLES,,,41.47385860000001,2.0889224000000013,41° 28' 25'',2° 05' 20'',,,,,,
42354,SUPER,https://www.bonarea.com/botiga/42354,PS FABRA I PUIG 259-261,BARCELONA,,,41.4302281,2.1723114,41° 25' 48'',2° 10' 20'',,,,,,
42355,SUPER,https://www.bonarea.com/botiga/42355,CL PALENCIA 24,BARCELONA,,,41.4165099,2.18826,41° 24' 59'',2° 11' 17'',,,,,,
42356,SUPER,https://www.bonarea.com/botiga/42356,PS VALLDAURA 192-196,BARCELONA,,,41.43853809735524,2.171151638031006,41° 26' 18'',2° 10' 16'',,,,,,
42359,SUPER,https://www.bonarea.com/botiga/42359,CORSEGA 49,BARCELONA,,,41.38444017194836,2.143280804157257,41° 23' 03'',2° 08' 35'',,,,,,
42360,SUPER,https://www.bonarea.com/botiga/42360,PZ ESPANYA 6,PINEDA DE MAR,,,41.626054,2.688654,41° 37' 33'',2° 41' 19'',,,,,,
42361,SUPER,https://www.bonarea.com/botiga/42361,CL MALLORCA 552,BARCELONA,,,41.4089781,2.1829287,41° 24' 32'',2° 10' 58'',,,,,,
42362,SUPER,https://www.bonarea.com/botiga/42362,AV ARTESA 9,LLEIDA,,,41.604019291149854,0.641501247882843,41° 36' 14'',0° 38' 29'',,,,,,
42364,SUPER,https://www.bonarea.com/botiga/42364,PABLO GARGALLO 75,ZARAGOZA,,,41.6608328,-0.9003687,41° 39' 38'',-0° 54' 01'',,,,,,
42366,SUPER,https://www.bonarea.com/botiga/42366,CR BARCELONA 36,SANT ANDREU DE LA BARCA,,,41.447879421280604,1.9746959209442139,41° 26' 52'',1° 58' 28'',,,,,,
42368,SUPER,https://www.bonarea.com/botiga/42368,SAGRADA FAMILIA 11,MANRESA,,,41.72786391507069,1.8382251262664795,41° 43' 40'',1° 50' 17'',,,,,,
42369,SUPER,https://www.bonarea.com/botiga/42369,AV MADRID 59,FRAGA,,,41.521527388356404,0.33737897872924805,41° 31' 17'',0° 20' 14'',,,,,,
42370,SUPER,https://www.bonarea.com/botiga/42370,SANTA LUCIA 1,ZARAGOZA,,,41.658068306415906,-0.889742374420166,41° 39' 29'',-0° 53' 23'',,,,,,
42371,SUPER,https://www.bonarea.com/botiga/42371,CL RIU FLUVIA 7,TARRAGONA,,,41.1167989,1.2148334,41° 07' 00'',1° 12' 53'',,,,,,
42372,SUPER,https://www.bonarea.com/botiga/42372,TERUEL 7,BINEFAR,,,41.85080695052319,0.29393792152404785,41° 51' 02'',0° 17' 38'',,,,,,
42373,SUPER,https://www.bonarea.com/botiga/42373,CL FELICIANO XARAU 25,CERDANYOLA DEL VALLES,,,41.4917792917577,2.135247588157654,41° 29' 30'',2° 08' 06'',,,,,,
42375,SUPER,https://www.bonarea.com/botiga/42375,CL ORIENT 7,"VENDRELL, EL",,,41.2199948,1.5364344,41° 13' 11'',1° 32' 11'',,,,,,
42377,SUPER,https://www.bonarea.com/botiga/42377,LLUIS PASCUAL ROCA 6-8 BAJOS,SANT BOI DE LLOBREGAT,,,41.34322651167823,2.0402222871780396,41° 20' 35'',2° 02' 24'',,,,,,
42379,SUPER,https://www.bonarea.com/botiga/42379,PS LLORENÇ SERRA 23,SANTA COLOMA DE GRAMENET,,,41.45078448785687,2.2063180804252625,41° 27' 02'',2° 12' 22'',,,,,,
42380,SUPER,https://www.bonarea.com/botiga/42380,LLUIS COMPANYS 21,LLEIDA,,,41.61192498388554,0.6170502305030823,41° 36' 42'',0° 37' 01'',,,,,,
42381,SUPER,https://www.bonarea.com/botiga/42381,AV CATALUNYA 40,SANTA COLOMA DE GRAMENET,,,41.458253,2.204622,41° 27' 29'',2° 12' 16'',,,,,,
42383,SUPER,https://www.bonarea.com/botiga/42383,"LLIBERTAT, 4 BAIX 1-2",CASTELLDEFELS,,,41.278736,1.97665,41° 16' 43'',1° 58' 35'',,,,,,
42385,SUPER,https://www.bonarea.com/botiga/42385,CL JERONI PUJADES 29,LLEIDA,,,41.623136089610746,0.6367510557174683,41° 37' 23'',0° 38' 12'',,,,,,
42386,SUPER,https://www.bonarea.com/botiga/42386,AV BARBERA 190-196,SABADELL,,,41.5353627,2.1145011,41° 32' 07'',2° 06' 52'',,,,,,
42387,SUPER,https://www.bonarea.com/botiga/42387,PS DE L'ESTACIO 26,BALAGUER,,,41.7892078,0.8100874,41° 47' 21'',0° 48' 36'',,,,,,
42388,SUPER,https://www.bonarea.com/botiga/42388,RUBIO I ORS 162,CORNELLA DE LLOBREGAT,,,41.3525854,2.0702026,41° 21' 09'',2° 04' 12'',,,,,,
42389,SUPER,https://www.bonarea.com/botiga/42389,CL CRISTOFOR COLOM 17-19,TARRAGONA,,,41.1157152,1.2479104000000234,41° 06' 56'',1° 14' 52'',,,,,,
42391,SUPER,https://www.bonarea.com/botiga/42391,CL ANGEL ARANYÓ 48,VILADECANS,,,41.31807845864195,2.014617919921875,41° 19' 05'',2° 00' 52'',,,,,,
42394,SUPER,https://www.bonarea.com/botiga/42394,CL MIQUEL VIVES 66-68,TERRASSA,,,41.56415319262774,2.024933695793152,41° 33' 50'',2° 01' 29'',,,,,,
42395,SUPER,https://www.bonarea.com/botiga/42395,RB GUIPUSCOA 67,BARCELONA,,,41.4174565,2.1982539,41° 25' 02'',2° 11' 53'',,,,,,
42396,SUPER,https://www.bonarea.com/botiga/42396,CL FEDERICO SOLER 52,"PRAT DE LLOBREGAT, EL",,,41.3264233,2.0958184,41° 19' 35'',2° 05' 44'',,,,,,
42399,SUPER,https://www.bonarea.com/botiga/42399,VERGE DE MONTSERRAT 10,AMPOSTA,,,40.71044059235696,0.5771014094352722,40° 42' 37'',0° 34' 37'',,,,,,
42402,SUPER,https://www.bonarea.com/botiga/42402,CL GRAN DE SANT ANDREU 291,BARCELONA,,,41.4362871,2.189635199999998,41° 26' 10'',2° 11' 22'',,,,,,
42403,SUPER,https://www.bonarea.com/botiga/42403,CL DE BARCELONA 256,SANT VICENÇ DELS HORTS,,,41.399101129669944,2.0075181126594543,41° 23' 56'',2° 00' 27'',,,,,,
42404,SUPER,https://www.bonarea.com/botiga/42404,CL MAJOR 11,MONTORNES DEL VALLES,,,41.54236099096062,2.266101837158203,41° 32' 32'',2° 15' 57'',,,,,,
42405,SUPER,https://www.bonarea.com/botiga/42405,CL JOAQUIM RUBIO I ORS 43,SANT BOI DE LLOBREGAT,,,41.3489193,2.0287694,41° 20' 56'',2° 01' 43'',,,,,,
42406,SUPER,https://www.bonarea.com/botiga/42406,GIRONA 281,TERRASSA,,,41.577571702115,2.0223721861839294,41° 34' 39'',2° 01' 20'',,,,,,
42409,SUPER,https://www.bonarea.com/botiga/42409,CL LERIDA 19,MONZON,,,41.912553310178566,0.19472569227218628,41° 54' 45'',0° 11' 41'',,,,,,
42410,SUPER,https://www.bonarea.com/botiga/42410,CL DEL CARME 63,MALGRAT DE MAR,,,41.645765,2.741568,41° 38' 44'',2° 44' 29'',,,,,,
42411,SUPER,https://www.bonarea.com/botiga/42411,CL PRUDENCI 9 - 11,SABADELL,,,41.55542474934645,2.0861846208572388,41° 33' 19'',2° 05' 10'',,,,,,
42412,SUPER,https://www.bonarea.com/botiga/42412,NOI DEL SUCRE 3,SANTA PERPETUA DE MOGODA,,,41.53081860654698,2.1840879321098328,41° 31' 50'',2° 11' 02'',,,,,,
42415,SUPER,https://www.bonarea.com/botiga/42415,ARQUEBISBE ALEMANY 7,VIC,,,41.93202936656058,2.252221405506134,41° 55' 55'',2° 15' 07'',,,,,,
42418,SUPER,https://www.bonarea.com/botiga/42418,CL JOSEP RICART 46,SANT FELIU DE LLOBREGAT,,,41.382808065623806,2.0517155528068542,41° 22' 58'',2° 03' 06'',,,,,,
42419,SUPER,https://www.bonarea.com/botiga/42419,SANT JOAN 94,CALELLA,,,41.61650911989749,2.660536766052246,41° 36' 59'',2° 39' 37'',,,,,,
42420,SUPER,https://www.bonarea.com/botiga/42420,CARRETERA DE MONTBLANC 2,VALLS,,,41.28737041960995,1.2511056661605835,41° 17' 14'',1° 15' 03'',,,,,,
42421,SUPER,https://www.bonarea.com/botiga/42421,PS DE LAS MORERAS 6,MADRID,,,40.346801693153196,-3.7107664346694946,40° 20' 48'',-3° 42' 38'',,,,,,
42423,SUPER,https://www.bonarea.com/botiga/42423,SEGRIA 34,LLEIDA,,,41.6181413626351,0.6130939722061157,41° 37' 05'',0° 36' 47'',,,,,,
42425,SUPER,https://www.bonarea.com/botiga/42425,AV JOSEP TARRADELLES 8,SABADELL,,,41.55948104310376,2.0969992876052856,41° 33' 34'',2° 05' 49'',,,,,,
42426,SUPER,https://www.bonarea.com/botiga/42426,PASSEIG DE VILANOVA 01,SITGES,,,41.2382669,1.8070992,41° 14' 17'',1° 48' 25'',,,,,,
42428,SUPER,https://www.bonarea.com/botiga/42428,AV.CATALUNYA 18,TARREGA,,,41.6473743684609,1.1402606964111328,41° 38' 50'',1° 08' 24'',,,,,,
42429,SUPER,https://www.bonarea.com/botiga/42429,RAMBLA NOVA 85,MOLLET DEL VALLES,,,41.541106,2.209171,41° 32' 27'',2° 12' 33'',,,,,,
42431,SUPER,https://www.bonarea.com/botiga/42431,AV CATALUNYA 13,PALAMOS,,,41.851604,3.126951,41° 51' 05'',3° 07' 37'',,,,,,
42433,SUPER,https://www.bonarea.com/botiga/42433,CL PAU PIFERRER 3,BADALONA,,,41.4428587,2.2242105000000265,41° 26' 34'',2° 13' 27'',,,,,,
42438,SUPER,https://www.bonarea.com/botiga/42438,AV DE LES COMARQUES CATALANES 30,MORA D'EBRE,,,41.088818,0.6411547,41° 05' 19'',0° 38' 28'',,,,,,
42439,SUPER,https://www.bonarea.com/botiga/42439,CL AVELLANER 7,CORNELLA DE LLOBREGAT,,,41.36433483853376,2.0806002616882324,41° 21' 51'',2° 04' 50'',,,,,,
42440,SUPER,https://www.bonarea.com/botiga/42440,CL FRANCISCO DE VITORIA 11,TERRASSA,,,41.56972200169957,2.0029449462890625,41° 34' 10'',2° 00' 10'',,,,,,
42443,SUPER,https://www.bonarea.com/botiga/42443,CL SALA BOADELLA 17,CASTELLAR DEL VALLES,,,41.6146181,2.08844,41° 36' 52'',2° 05' 18'',,,,,,
42444,SUPER,https://www.bonarea.com/botiga/42444,MONTFLORIT 79,GAVA,,,41.303216,2.000321,41° 18' 11'',2° 00' 01'',,,,,,
42446,SUPER,https://www.bonarea.com/botiga/42446,AV PAIS VALENCIA 34,VINAROS,,,40.4685556,0.4738661,40° 28' 06'',0° 28' 25'',,,,,,
42448,SUPER,https://www.bonarea.com/botiga/42448,REGENCIA D'URGELL 14,"SEU D'URGELL, LA",,,42.35728335306259,1.4576196670532227,42° 21' 26'',1° 27' 27'',,,,,,
42449,SUPER,https://www.bonarea.com/botiga/42449,RB ANTONI VIDAL 27,SANT FELIU DE GUIXOLS,,,41.7815551,3.0294352,41° 46' 53'',3° 01' 45'',,,,,,
42450,SUPER,https://www.bonarea.com/botiga/42450,AV VALENCIA 6,LLEIDA,,,41.612216,0.630192,41° 36' 43'',0° 37' 48'',,,,,,
42451,SUPER,https://www.bonarea.com/botiga/42451,CL MAJOR 206,ALCARRAS,,,41.56265806125663,0.5203592777252197,41° 33' 45'',0° 31' 13'',,,,,,
42452,SUPER,https://www.bonarea.com/botiga/42452,AV MADRID 7,"POBLA DE SEGUR, LA",,,42.2504043081095,0.9658366441726685,42° 15' 01'',0° 57' 57'',,,,,,
42453,SUPER,https://www.bonarea.com/botiga/42453,DOCE DE OCTUBRE 9-11,ZARAGOZA,,,41.635002779098386,-0.8775866031646729,41° 38' 06'',-0° 52' 39'',,,,,,
42455,SUPER,https://www.bonarea.com/botiga/42455,CL LLOBREGOS 127-133,BARCELONA,,,41.42443509751395,2.156388759613037,41° 25' 27'',2° 09' 23'',,,,,,
42457,SUPER,https://www.bonarea.com/botiga/42457,CL ENRIC PRAT DE LA RIBA 171,"HOSPITALET DE LLOBREGAT, L'",,,41.3620859,2.1082531,41° 21' 43'',2° 06' 29'',,,,,,
42459,SUPER,https://www.bonarea.com/botiga/42459,JOSEP COROLEU 105,VILANOVA I LA GELTRU,,,41.22070401728155,1.7204654216766357,41° 13' 14'',1° 43' 13'',,,,,,
42461,SUPER,https://www.bonarea.com/botiga/42461,JUAN XXIII 1 (acceso Cesar Cataldo),BENICARLO,,,40.4160667,0.4259182,40° 24' 57'',0° 25' 33'',,,,,,
42463,SUPER,https://www.bonarea.com/botiga/42463,CL PASSEIG TERRAPLÉ 6,MOLINS DE REI,,,41.410446,2.016585,41° 24' 37'',2° 00' 59'',,,,,,
42465,SUPER,https://www.bonarea.com/botiga/42465,CL PAU CASALS 46,CAMBRILS,,,41.067337,1.061266,41° 04' 02'',1° 03' 40'',,,,,,
42466,SUPER,https://www.bonarea.com/botiga/42466,CL CALDETAS 6,"PRAT DE LLOBREGAT, EL",,,41.322870751211646,2.097787857055664,41° 19' 22'',2° 05' 52'',,,,,,
42467,SUPER,https://www.bonarea.com/botiga/42467,DOCTOR GILBERT/REQUET DE FELIX S/N,VILA-SECA,,,41.11177,1.147898,41° 06' 42'',1° 08' 52'',,,,,,
42470,SUPER,https://www.bonarea.com/botiga/42470,CL ESCULTOR PALAO 36,ZARAGOZA,,,41.648953719905435,-0.9147727489471436,41° 38' 56'',-0° 54' 53'',,,,,,
42471,SUPER,https://www.bonarea.com/botiga/42471,AV ROMA 110-112,MANLLEU,,,42.004160064153794,2.2837185859680176,42° 00' 14'',2° 17' 01'',,,,,,
42472,SUPER,https://www.bonarea.com/botiga/42472,RAMBLA NOVA LOCAL 7-8,CALAFELL,,,41.19133479665833,1.5674883127212524,41° 11' 28'',1° 34' 02'',,,,,,
42474,SUPER,https://www.bonarea.com/botiga/42474,CL DE LES ACACIES 4,BARCELONA,,,41.42342,2.1782428,41° 25' 24'',2° 10' 41'',,,,,,
42477,SUPER,https://www.bonarea.com/botiga/42477,CL MOSSEN JACINT VERDAGUER 53,SANTA COLOMA DE GRAMENET,,,41.4476629,2.2133067,41° 26' 51'',2° 12' 47'',,,,,,
42478,SUPER,https://www.bonarea.com/botiga/42478,CL APRESTADORA 72,"HOSPITALET DE LLOBREGAT, L'",,,41.3628114,2.1271828,41° 21' 46'',2° 07' 37'',,,,,,
42480,SUPER,https://www.bonarea.com/botiga/42480,CL LA BOFIA 7,SOLSONA,,,41.99618102674528,1.520954668521881,41° 59' 46'',1° 31' 15'',,,,,,
42486,SUPER,https://www.bonarea.com/botiga/42486,AV GENERALITAT 4,PALLEJA,,,41.4223136,1.9971399,41° 25' 20'',1° 59' 49'',,,,,,
42487,SUPER,https://www.bonarea.com/botiga/42487,CL REINA FABIOLA 30,ZARAGOZA,,,41.6451624,-0.8746161000000257,41° 38' 42'',-0° 52' 28'',,,,,,
42488,SUPER,https://www.bonarea.com/botiga/42488,PS FABRA I PUIG 43-45,BARCELONA,,,41.4301018,2.1864106,41° 25' 48'',2° 11' 11'',,,,,,
42491,SUPER,https://www.bonarea.com/botiga/42491,CL PERE BADIA 16-18,TORREDEMBARRA,,,41.1444584,1.4025193,41° 08' 40'',1° 24' 09'',,,,,,
42492,SUPER,https://www.bonarea.com/botiga/42492,AV CONSTITUCIO 18,SANT CARLES DE LA RAPITA,,,40.617441,0.591128,40° 37' 02'',0° 35' 28'',,,,,,
42493,SUPER,https://www.bonarea.com/botiga/42493,PS DOCTOR VIC 3,"GARRIGA, LA",,,41.685082,2.286637,41° 41' 06'',2° 17' 11'',,,,,,
42494,SUPER,https://www.bonarea.com/botiga/42494,CR DE SITGES 77,SANT PERE DE RIBES,,,41.2588184,1.7759698,41° 15' 31'',1° 46' 33'',,,,,,
42499,SUPER,https://www.bonarea.com/botiga/42499,CL MARINA 89,BARCELONA,,,41.39361623394864,2.1883392333984375,41° 23' 37'',2° 11' 18'',,,,,,
42500,SUPER,https://www.bonarea.com/botiga/42500,RB GENERALITAT 27,SANT SADURNI D'ANOIA,,,41.4257944,1.7842796,41° 25' 32'',1° 47' 03'',,,,,,
42505,SUPER,https://www.bonarea.com/botiga/42505,CL MAJOR 243,VALLIRANA,,,41.389205446493094,1.9339048862457275,41° 23' 21'',1° 56' 02'',,,,,,
42506,SUPER,https://www.bonarea.com/botiga/42506,PS TERUEL 12,ZARAGOZA,,,41.6486013,-0.8904115,41° 38' 54'',-0° 53' 25'',,,,,,
42507,SUPER,https://www.bonarea.com/botiga/42507,"AV ROUREDA, 78",VILADECANS,,,41.32037292095441,2.0082449913024902,41° 19' 13'',2° 00' 29'',,,,,,
42508,SUPER,https://www.bonarea.com/botiga/42508,CL RAFAMANS 48,CORBERA DE LLOBREGAT,,,41.4134602,1.9302046999999902,41° 24' 48'',1° 55' 48'',,,,,,
42509,SUPER,https://www.bonarea.com/botiga/42509,CL ARTANA  10,CASTELLO DE LA PLANA,,,39.9796094,-0.0356536,39° 58' 46'',-0° 02' 08'',,,,,,
42510,SUPER,https://www.bonarea.com/botiga/42510,AV DEL TANCAT 80,"VENDRELL, EL",,,41.21827490758863,1.52785062789917,41° 13' 05'',1° 31' 40'',,,,,,
42511,SUPER,https://www.bonarea.com/botiga/42511,CL JOAQUIN COSTA 2,CASPE,,,41.23607552610912,-0.044481754302978516,41° 14' 09'',-0° 02' 40'',,,,,,
42514,SUPER,https://www.bonarea.com/botiga/42514,CL TORRASSA 16,SANT ADRIA DE BESOS,,,41.42613252645802,2.225375175476074,41° 25' 34'',2° 13' 31'',,,,,,
42515,SUPER,https://www.bonarea.com/botiga/42515,"CL MAJOR, 106",ULLDECONA,,,40.59643154686758,0.4466709494590759,40° 35' 47'',0° 26' 48'',,,,,,
42516,SUPER,https://www.bonarea.com/botiga/42516,CL NOU 77,FIGUERES,,,42.26393936058192,2.9643183946609497,42° 15' 50'',2° 57' 51'',,,,,,
42517,SUPER,https://www.bonarea.com/botiga/42517,CL SOLIDARITAT 3,"BISBAL D'EMPORDA, LA",,,41.96213679614302,3.0353111028671265,41° 57' 43'',3° 02' 07'',,,,,,
42518,SUPER,https://www.bonarea.com/botiga/42518,"CL RAMON LLULL, 10",CARDEDEU,,,41.64169800406485,2.3601722717285156,41° 38' 30'',2° 21' 36'',,,,,,
42520,SUPER,https://www.bonarea.com/botiga/42520,PZ DIAGONAL MAR LOCAL 3 CL PUJADES 410,BARCELONA,,,41.41037932480691,2.215569019317627,41° 24' 37'',2° 12' 56'',,,,,,
42521,SUPER,https://www.bonarea.com/botiga/42521,AV PAISOS CATALANS 4-12,SANTA COLOMA DE CERVELLO,,,41.36887249999999,2.0185467999999673,41° 22' 07'',2° 01' 06'',,,,,,
42524,SUPER,https://www.bonarea.com/botiga/42524,CL RAFAEL CASANOVAS 18,VILANOVA DEL CAMI,,,41.5721861719357,1.6409432888031006,41° 34' 19'',1° 38' 27'',,,,,,
42530,SUPER,https://www.bonarea.com/botiga/42530,AV CATALUNYA 5,GANDESA,,,41.054241045561746,0.4389569163322449,41° 03' 15'',0° 26' 20'',,,,,,
42532,SUPER,https://www.bonarea.com/botiga/42532,CL BARCELONA 34,SALOU,,,41.078878,1.131334,41° 04' 43'',1° 07' 52'',,,,,,
42533,SUPER,https://www.bonarea.com/botiga/42533,AV BUENOS AIRES 20,UTEBO,,,41.7052719524497,-1.0012686252593994,41° 42' 18'',-1° 00' 04'',,,,,,
42534,SUPER,https://www.bonarea.com/botiga/42534,CL BIGAI 4,BARCELONA,,,41.40497987663063,2.1326780319213867,41° 24' 17'',2° 07' 57'',,,,,,
42535,SUPER,https://www.bonarea.com/botiga/42535,ESCUDER  15,BARCELONA,,,41.37951354125817,2.1891653537750244,41° 22' 46'',2° 11' 20'',,,,,,
42536,SUPER,https://www.bonarea.com/botiga/42536,PZ CATALUNYA 4,SALLENT,,,41.82714301294312,1.8934786319732666,41° 49' 37'',1° 53' 36'',,,,,,
42537,SUPER,https://www.bonarea.com/botiga/42537,CL ANDRES MARTINEZ VARGAS 10,ZARAGOZA,,,41.629381,-0.887275,41° 37' 45'',-0° 53' 14'',,,,,,
42538,SUPER,https://www.bonarea.com/botiga/42538,CL PROGRES 22,RIPOLL,,,42.198082,2.194223,42° 11' 53'',2° 11' 39'',,,,,,
42539,SUPER,https://www.bonarea.com/botiga/42539,CL MAJOR 51,BEGUES,,,41.3305409088968,1.9237768650054932,41° 19' 49'',1° 55' 25'',,,,,,
42540,SUPER,https://www.bonarea.com/botiga/42540,CL ROSSELLO 24,SANT CUGAT DEL VALLES,,,41.469301480427056,2.079586386680603,41° 28' 09'',2° 04' 46'',,,,,,
42541,SUPER,https://www.bonarea.com/botiga/42541,CL MAJOR 40,SANT JOAN DE VILATORRADA,,,41.7435853,1.8051576,41° 44' 36'',1° 48' 18'',,,,,,
42542,SUPER,https://www.bonarea.com/botiga/42542,CL ANGEL GUIMERA 6,MONTMELO,,,41.55184392025286,2.247079610824585,41° 33' 06'',2° 14' 49'',,,,,,
42543,SUPER,https://www.bonarea.com/botiga/42543,CL MAJOR 43,SANT GUIM DE FREIXENET,,,41.655336,1.4188853,41° 39' 19'',1° 25' 07'',,,,,,
42544,SUPER,https://www.bonarea.com/botiga/42544,PS DE LA GENERALITAT 32,VIC,,,41.92248466641899,2.2530770301818848,41° 55' 20'',2° 15' 11'',,,,,,
42545,SUPER,https://www.bonarea.com/botiga/42545,CL BALMES 1,TORELLO,,,42.05013712445527,2.263011932373047,42° 03' 00'',2° 15' 46'',,,,,,
42546,SUPER,https://www.bonarea.com/botiga/42546,"CL HERRERO, 32",CASTELLO DE LA PLANA,,,39.980671702140334,-0.04012584686279297,39° 58' 50'',-0° 02' 24'',,,,,,
42548,SUPER,https://www.bonarea.com/botiga/42548,CL ADOLFO AZNAR 13,ZARAGOZA,,,41.676005123041165,-0.8871674537658691,41° 40' 33'',-0° 53' 13'',,,,,,
42549,SUPER,https://www.bonarea.com/botiga/42549,CL MARCELINO UNCETA 30-34,ZARAGOZA,,,41.651656,-0.9016594,41° 39' 05'',-0° 54' 05'',,,,,,
42550,SUPER,https://www.bonarea.com/botiga/42550,AV MANUEL GIRONA 26,CASTELLDEFELS,,,41.2856478,1.982688899999971,41° 17' 08'',1° 58' 57'',,,,,,
42552,SUPER,https://www.bonarea.com/botiga/42552,RB GENER 26,"ARBOÇ, L'",,,41.2668218141375,1.6020163893699646,41° 16' 00'',1° 36' 07'',,,,,,
42553,SUPER,https://www.bonarea.com/botiga/42553,AV VALLE DE ARAN 13,GRAUS,,,42.1917954,0.3420458000000508,42° 11' 30'',0° 20' 31'',,,,,,
42554,SUPER,https://www.bonarea.com/botiga/42554,CL PRIMER DE MAIG 56,SANT BOI DE LLOBREGAT,,,41.35656598241062,2.0308077335357666,41° 21' 23'',2° 01' 50'',,,,,,
42555,SUPER,https://www.bonarea.com/botiga/42555,"CL MAJOR, 55",ALMACELLES,,,41.73392499382807,0.4344749450683594,41° 44' 02'',0° 26' 04'',,,,,,
42556,SUPER,https://www.bonarea.com/botiga/42556,AV BARCELONA 48-54,CUNIT,,,41.19613034231656,1.6210278868675232,41° 11' 46'',1° 37' 15'',,,,,,
42557,SUPER,https://www.bonarea.com/botiga/42557,GRAN VIA DE LES CORTS CATALANES 1107,BARCELONA,,,41.41750011644296,2.204926013946533,41° 25' 03'',2° 12' 17'',,,,,,
42559,SUPER,https://www.bonarea.com/botiga/42559,PZ SERRANO BERGÉS 11,ZARAGOZA,,,41.6674064,-0.831161,41° 40' 02'',-0° 49' 52'',,,,,,
42560,SUPER,https://www.bonarea.com/botiga/42560,"AV MONZON, 42",FONZ,,,42.00995385666314,0.25483667850494385,42° 00' 35'',0° 15' 17'',,,,,,
42561,SUPER,https://www.bonarea.com/botiga/42561,"CL MIGUEL HERNANDEZ, 21",SANT VICENÇ DELS HORTS,,,41.389726627207885,2.0097631216049194,41° 23' 23'',2° 00' 35'',,,,,,
42562,SUPER,https://www.bonarea.com/botiga/42562,AV VALENCIA 92,CASTELLO DE LA PLANA,,,39.97600812901439,-0.04833340644836426,39° 58' 33'',-0° 02' 54'',,,,,,
42563,SUPER,https://www.bonarea.com/botiga/42563,CL NTRA SRA DEL CARMEN 9,ALCOLETGE,,,41.64807987033756,0.6950891017913818,41° 38' 53'',0° 41' 42'',,,,,,
42564,SUPER,https://www.bonarea.com/botiga/42564,PS BARON DE WARSAGE 6,CALATAYUD,,,41.35292986333587,-1.6379687190055847,41° 21' 10'',-1° 38' 16'',,,,,,
42566,SUPER,https://www.bonarea.com/botiga/42566,CL CADI 10,POLINYA,,,41.55652063609314,2.15556263923645,41° 33' 23'',2° 09' 20'',,,,,,
42567,SUPER,https://www.bonarea.com/botiga/42567,AV CATALUNYA 198,PALAU-SOLITA I PLEGAMANS,,,41.58594205948015,2.180236279964447,41° 35' 09'',2° 10' 48'',,,,,,
42569,SUPER,https://www.bonarea.com/botiga/42569,CL LLUIS DOMENECH I MUNTANER 3,SANT JOAN DESPI,,,41.3659392263103,2.0725321769714355,41° 21' 57'',2° 04' 21'',,,,,,
42572,SUPER,https://www.bonarea.com/botiga/42572,CL MAJOR 51,TORRELLES DE LLOBREGAT,,,41.35758067706406,1.9809642434120178,41° 21' 27'',1° 58' 51'',,,,,,
42573,SUPER,https://www.bonarea.com/botiga/42573,CL BALUARTE ARAGONES 7,ZARAGOZA,,,41.66056918115476,-0.8601495623588562,41° 39' 38'',-0° 51' 36'',,,,,,
42574,SUPER,https://www.bonarea.com/botiga/42574,CL RIBESALBES 6,ONDA,,,39.963717709325216,-0.26173532009124756,39° 57' 49'',-0° 15' 42'',,,,,,
42575,SUPER,https://www.bonarea.com/botiga/42575,CL DOCTOR PEARSON 32,TREMP,,,42.164446,0.893634,42° 09' 52'',0° 53' 37'',,,,,,
42576,SUPER,https://www.bonarea.com/botiga/42576,AV DE LA PLANA 97,OROPESA,,,40.0908539,0.1374546,40° 05' 27'',0° 08' 14'',,,,,,
42579,SUPER,https://www.bonarea.com/botiga/42579,CL CARRERAS CANDI 2,ARGENTONA,,,41.55471622659654,2.403605282306671,41° 33' 16'',2° 24' 12'',,,,,,
42580,SUPER,https://www.bonarea.com/botiga/42580,PZ EL SALVADOR 13,SARIÑENA,,,41.79097076838943,-0.15693068504333496,41° 47' 27'',-0° 09' 24'',,,,,,
42581,SUPER,https://www.bonarea.com/botiga/42581,AV SANTIAGO LAPUENTE 22,FUENTES DE EBRO,,,41.51028055909925,-0.6258344650268555,41° 30' 37'',-0° 37' 33'',,,,,,
42582,SUPER,https://www.bonarea.com/botiga/42582,CL ZARAGOZA 21,GUADALAJARA,,,40.6335795900779,-3.156994879245758,40° 38' 00'',-3° 09' 25'',,,,,,
42585,SUPER,https://www.bonarea.com/botiga/42585,CL BARCELONA 15,CONSTANTI,,,41.151590512731076,1.21486097574234,41° 09' 05'',1° 12' 53'',,,,,,
42587,SUPER,https://www.bonarea.com/botiga/42587,PZ RAMON FOLCH 11,BELLPUIG,,,41.62745678779304,1.00862056016922,41° 37' 38'',1° 00' 31'',,,,,,
42588,SUPER,https://www.bonarea.com/botiga/42588,CL GIRONA 3,"MASIES DE VOLTREGA, LES",,,42.01562157647647,2.245030403137207,42° 00' 56'',2° 14' 42'',,,,,,
42589,SUPER,https://www.bonarea.com/botiga/42589,AV CATALUNYA 96,ALCANAR,,,40.54216178254379,0.4833582043647766,40° 32' 31'',0° 29' 00'',,,,,,
42590,SUPER,https://www.bonarea.com/botiga/42590,AV AGRAMUNT 5,CERVERA,,,41.6726416,1.2714453,41° 40' 21'',1° 16' 17'',,,,,,
42591,SUPER,https://www.bonarea.com/botiga/42591,CL PALAU DELS COMTES 8,CENTELLES,,,41.796463995018215,2.220139503479004,41° 47' 47'',2° 13' 12'',,,,,,
42592,SUPER,https://www.bonarea.com/botiga/42592,CL VALENCIA 31,BARCELONA,,,41.38106724122878,2.147902250289917,41° 22' 51'',2° 08' 52'',,,,,,
42593,SUPER,https://www.bonarea.com/botiga/42593,PS DIAGONAL 8,ARTES,,,41.7966847,1.9542124,41° 47' 48'',1° 57' 15'',,,,,,
42594,SUPER,https://www.bonarea.com/botiga/42594,CL NAPOLS 57,SANTA COLOMA DE GRAMENET,,,41.45391658690809,2.217245399951935,41° 27' 14'',2° 13' 02'',,,,,,
42595,SUPER,https://www.bonarea.com/botiga/42595,AV CARDENAL VIDAL I BARRAQUER 28,REUS,,,41.14718959984354,1.109417974948883,41° 08' 49'',1° 06' 33'',,,,,,
42596,SUPER,https://www.bonarea.com/botiga/42596,PS MARAGALL 5,BARCELONA,,,41.4137321,2.1811398,41° 24' 49'',2° 10' 52'',,,,,,
42597,SUPER,https://www.bonarea.com/botiga/42597,CL SARDANA 11,"MORELL, EL",,,41.19150434214163,1.2058272957801819,41° 11' 29'',1° 12' 20'',,,,,,
42598,SUPER,https://www.bonarea.com/botiga/42598,CL PADRO 79,SANT FRUITOS DE BAGES,,,41.75157452719443,1.8747085332870483,41° 45' 05'',1° 52' 28'',,,,,,
42600,SUPER,https://www.bonarea.com/botiga/42600,SANT FRANCESC XAVIER 34,ESPLUGUES DE LLOBREGAT,,,41.37619872308369,2.084803283214569,41° 22' 34'',2° 05' 05'',,,,,,
42601,SUPER,https://www.bonarea.com/botiga/42601,AV DEL MEDITERRANI 45,PINEDA DE MAR,,,41.61954096785802,2.6726147532463074,41° 37' 10'',2° 40' 21'',,,,,,
42602,SUPER,https://www.bonarea.com/botiga/42602,PZ GENERALITAT VALENCIANA 1,BURRIANA,,,39.88718336574119,-0.0832664966583252,39° 53' 13'',-0° 04' 59'',,,,,,
42603,SUPER,https://www.bonarea.com/botiga/42603,PZ JULIA MARTI I POU 10-11,LLIÇA D'AMUNT,,,41.6070334,2.2407204,41° 36' 25'',2° 14' 26'',,,,,,
42604,SUPER,https://www.bonarea.com/botiga/42604,CR MANRESA 39,MOIA,,,41.81001207439897,2.0950734615325928,41° 48' 36'',2° 05' 42'',,,,,,
42605,SUPER,https://www.bonarea.com/botiga/42605,CL CAMI DE LA TEULERIA 7,OLOT,,,42.17330360245548,2.47866153717041,42° 10' 23'',2° 28' 43'',,,,,,
42606,SUPER,https://www.bonarea.com/botiga/42606,CL SANT JORDI 18,FLIX,,,41.23081492303299,0.5512905120849609,41° 13' 50'',0° 33' 04'',,,,,,
42607,SUPER,https://www.bonarea.com/botiga/42607,AV DE ARAGON 18,BELVER DE CINCA,,,41.69174581062072,0.1793619990348816,41° 41' 30'',0° 10' 45'',,,,,,
42608,SUPER,https://www.bonarea.com/botiga/42608,CL DE LA LLACUNA 44,SANTA COLOMA DE QUERALT,,,41.5342018287619,1.3860046863555908,41° 32' 03'',1° 23' 09'',,,,,,
42610,SUPER,https://www.bonarea.com/botiga/42610,CL PI I MARGALL 3,SANT QUIRZE DEL VALLES,,,41.53148723363115,2.084108591079712,41° 31' 53'',2° 05' 02'',,,,,,
42611,SUPER,https://www.bonarea.com/botiga/42611,CL ESTACIO 1,BELL-LLOC D'URGELL,,,41.631642877185286,0.7818746566772461,41° 37' 53'',0° 46' 54'',,,,,,
42612,SUPER,https://www.bonarea.com/botiga/42612,CL ROSER 109,TORREGROSSA,,,41.57989913952189,0.8261418342590332,41° 34' 47'',0° 49' 34'',,,,,,
42615,SUPER,https://www.bonarea.com/botiga/42615,CL RIBES 27,BARCELONA,,,41.395330565093964,2.1820199489593506,41° 23' 43'',2° 10' 55'',,,,,,
42617,SUPER,https://www.bonarea.com/botiga/42617,CL MONJO 16,SANTPEDOR,,,41.78322505897598,1.8376672267913818,41° 46' 59'',1° 50' 15'',,,,,,
42619,SUPER,https://www.bonarea.com/botiga/42619,CL TERUEL 18,VILLARREAL,,,39.941964069197255,-0.09554028511047363,39° 56' 31'',-0° 05' 43'',,,,,,
42620,SUPER,https://www.bonarea.com/botiga/42620,AV CAPUCHINOS 18,CASTELLO DE LA PLANA,,,39.990365736183755,-0.034023821353912354,39° 59' 25'',-0° 02' 02'',,,,,,
42621,SUPER,https://www.bonarea.com/botiga/42621,CL DE LA SINIA 12,LLORENÇ DEL PENEDES,,,41.28177330935633,1.549673080444336,41° 16' 54'',1° 32' 58'',,,,,,
42622,SUPER,https://www.bonarea.com/botiga/42622,PASSATGE TORNER 3,BARCELONA,,,41.44906960961485,2.192241847515106,41° 26' 56'',2° 11' 32'',,,,,,
42623,SUPER,https://www.bonarea.com/botiga/42623,RB BADAL 86,BARCELONA,,,41.36954442515075,2.1329328417778015,41° 22' 10'',2° 07' 58'',,,,,,
42624,SUPER,https://www.bonarea.com/botiga/42624,CL A-10 20,MEQUINENZA,,,41.37171429218904,0.3015044331550598,41° 22' 18'',0° 18' 05'',,,,,,
42625,SUPER,https://www.bonarea.com/botiga/42625,AV DE CAN SERRA 44,"HOSPITALET DE LLOBREGAT, L'",,,41.366297540886386,2.100483477115631,41° 21' 58'',2° 06' 01'',,,,,,
42626,SUPER,https://www.bonarea.com/botiga/42626,AV PARLAMENT 23,TERRASSA,,,41.5813382,2.0128118,41° 34' 52'',2° 00' 46'',,,,,,
42628,SUPER,https://www.bonarea.com/botiga/42628,CL VIC 4,LLEIDA,,,41.6285935544694,0.6261509656906128,41° 37' 42'',0° 37' 34'',,,,,,
42629,SUPER,https://www.bonarea.com/botiga/42629,AV VIDRERES 9,LLORET DE MAR,,,41.70333552950379,2.844439744949341,41° 42' 12'',2° 50' 39'',,,,,,
42630,SUPER,https://www.bonarea.com/botiga/42630,CL RIERA DEL BISBE POT 21 BIS,ARENYS DE MAR,,,41.5798863,2.5509593,41° 34' 47'',2° 33' 03'',,,,,,
42631,SUPER,https://www.bonarea.com/botiga/42631,PZ DOCTOR FERRAN 6,PREMIA DE MAR,,,41.49525295113602,2.363659143447876,41° 29' 42'',2° 21' 49'',,,,,,
42632,SUPER,https://www.bonarea.com/botiga/42632,CL MESTRE ROCA 4-6,PEÑISCOLA,,,40.36043524972265,0.39964377880096436,40° 21' 37'',0° 23' 58'',,,,,,
42633,SUPER,https://www.bonarea.com/botiga/42633,CL SANT AGUSTI 3,PUIGCERDA,,,42.434131504593275,1.9265341758728027,42° 26' 02'',1° 55' 35'',,,,,,
42635,SUPER,https://www.bonarea.com/botiga/42635,CL SANTA MARIA 14,"PONT DE VILOMARA I ROCAFORT, EL",,,41.69991711005434,1.8716052174568176,41° 41' 59'',1° 52' 17'',,,,,,
42637,SUPER,https://www.bonarea.com/botiga/42637,CL GIL DE ANDRADE 4,ALCALA DE HENARES,,,40.487187071431464,-3.3541131019592285,40° 29' 13'',-3° 21' 14'',,,,,,
42638,SUPER,https://www.bonarea.com/botiga/42638,CL SANT LLOP 7,DOSRIUS,,,41.593926192601046,2.4073871970176697,41° 35' 38'',2° 24' 26'',,,,,,
42639,SUPER,https://www.bonarea.com/botiga/42639,CL MIGUEL SERVET 85,ZARAGOZA,,,41.6417608,-0.8677098,41° 38' 30'',-0° 52' 03'',,,,,,
42640,SUPER,https://www.bonarea.com/botiga/42640,CL VIDAL I BARRAQUER 16,VILASSAR DE DALT,,,41.515657188971325,2.3624280095100403,41° 30' 56'',2° 21' 44'',,,,,,
42641,SUPER,https://www.bonarea.com/botiga/42641,PZ CARLOS ROIG 7,CAMBRILS,,,41.07359064686743,1.0500741004943848,41° 04' 24'',1° 03' 00'',,,,,,
42642,SUPER,https://www.bonarea.com/botiga/42642,AV PORT DE CARO 18,ROQUETES,,,40.81882719212636,0.5060738325119019,40° 49' 07'',0° 30' 21'',,,,,,
42643,SUPER,https://www.bonarea.com/botiga/42643,AV CESAR AUGUSTO 92,ZARAGOZA,,,41.65549719372388,-0.8832111954689026,41° 39' 19'',-0° 52' 59'',,,,,,
42644,SUPER,https://www.bonarea.com/botiga/42644,CL ROSALES 36,ABRERA,,,41.516393,1.901075,41° 30' 59'',1° 54' 03'',,,,,,
42645,SUPER,https://www.bonarea.com/botiga/42645,CL GONGORA 68,BARCELONA,,,41.44461835421892,2.176813781261444,41° 26' 40'',2° 10' 36'',,,,,,
42646,SUPER,https://www.bonarea.com/botiga/42646,CL SAN EUGENIO 33,ZARAGOZA,,,41.6252311,-0.8783255,41° 37' 30'',-0° 52' 41'',,,,,,
42647,SUPER,https://www.bonarea.com/botiga/42647,CL MIRAFLORES 13,ALCOBENDAS Y LA MORALEJA,,,40.543549840481866,-3.6377137899398804,40° 32' 36'',-3° 38' 15'',,,,,,
42648,SUPER,https://www.bonarea.com/botiga/42648,CL SEVA 4,TONA,,,41.84740237638651,2.2287681698799133,41° 50' 50'',2° 13' 43'',,,,,,
42649,SUPER,https://www.bonarea.com/botiga/42649,AV DE REUS 19,ALCOVER,,,41.261551588741796,1.1702370643615723,41° 15' 41'',1° 10' 12'',,,,,,
42650,SUPER,https://www.bonarea.com/botiga/42650,CL FRANCESC MESTRES 17,SANT FELIU DE LLOBREGAT,,,41.38627548795596,2.0460695028305054,41° 23' 10'',2° 02' 45'',,,,,,
42651,SUPER,https://www.bonarea.com/botiga/42651,AV TRAVESSERA DE LES CORTS 294,BARCELONA,,,41.387684,2.136591,41° 23' 15'',2° 08' 11'',,,,,,
42652,SUPER,https://www.bonarea.com/botiga/42652,CL NOU 33,LLINARS DEL VALLES,,,41.639428921906934,2.399190366268158,41° 38' 21'',2° 23' 57'',,,,,,
42653,SUPER,https://www.bonarea.com/botiga/42653,AV GIRONA 65,"ESCALA, L'",,,42.11687968789818,3.128957748413086,42° 07' 00'',3° 07' 44'',,,,,,
42654,SUPER,https://www.bonarea.com/botiga/42654,CL MOGENT Ctda CL MOLÍ 0,MARTORELLES,,,41.528717,2.227959,41° 31' 43'',2° 13' 40'',,,,,,
42655,SUPER,https://www.bonarea.com/botiga/42655,CL GANGANELL 23,BESALU,,,42.19930704892075,2.697873115539551,42° 11' 57'',2° 41' 52'',,,,,,
42656,SUPER,https://www.bonarea.com/botiga/42656,CL CARRER TRENTA-DOS 8,CAMARLES,,,40.77337765900961,0.6705549359321594,40° 46' 24'',0° 40' 13'',,,,,,
42657,SUPER,https://www.bonarea.com/botiga/42657,AV SAN VICENTE PAUL 3,TAMARITE DE LITERA,,,41.8713664063396,0.4189610481262207,41° 52' 16'',0° 25' 08'',,,,,,
42659,SUPER,https://www.bonarea.com/botiga/42659,CL BARRIO NUEVO 30,ALAGON,,,41.77027545520871,-1.1190712451934814,41° 46' 12'',-1° 07' 08'',,,,,,
42660,SUPER,https://www.bonarea.com/botiga/42660,CL SANTIAGO RUSIÑOL LOCAL E - PARC D'ARO,PLATJA D'ARO,,,41.806415394621816,3.0543118715286255,41° 48' 23'',3° 03' 15'',,,,,,
42661,SUPER,https://www.bonarea.com/botiga/42661,CL LORDA 2,BARCELONA,,,41.420885,2.149495,41° 25' 15'',2° 08' 58'',,,,,,
42662,SUPER,https://www.bonarea.com/botiga/42662,RAMBLA DE LES BOBILES 10,MARTORELL,,,41.477171,1.915816,41° 28' 37'',1° 54' 56'',,,,,,
42663,SUPER,https://www.bonarea.com/botiga/42663,CL BAIX CAMP CANT.CR DE MORA  1,"HOSPITALET DE L'INFANT, L'",,,40.993429,0.920838,40° 59' 36'',0° 55' 15'',,,,,,
42664,SUPER,https://www.bonarea.com/botiga/42664,CL SAN JUAN BAUTISTA 8,ZAIDIN,,,41.604562813466714,0.26585519313812256,41° 36' 16'',0° 15' 57'',,,,,,
42665,SUPER,https://www.bonarea.com/botiga/42665,PZ REGUERETA 14,OLIANA,,,42.066369,1.312557,42° 03' 58'',1° 18' 45'',,,,,,
42666,SUPER,https://www.bonarea.com/botiga/42666,CL CRISTOFOL LLARGUES 26,CORNELLA DE LLOBREGAT,,,41.360173713754506,2.079591751098633,41° 21' 36'',2° 04' 46'',,,,,,
42667,SUPER,https://www.bonarea.com/botiga/42667,CL LLEIDA 5,ALPICAT,,,41.66759034877682,0.5556678771972656,41° 40' 03'',0° 33' 20'',,,,,,
42668,SUPER,https://www.bonarea.com/botiga/42668,AV CATALUNYA 26,GIRONELLA,,,42.032047,1.880298,42° 01' 55'',1° 52' 49'',,,,,,
42669,SUPER,https://www.bonarea.com/botiga/42669,CL MOSSEN CINTO VERDAGUER 17,BELLVER DE CERDANYA,,,42.36955494276816,1.7800882458686829,42° 22' 10'',1° 46' 48'',,,,,,
42671,SUPER,https://www.bonarea.com/botiga/42671,CL PI I MARAGALL 146,CALDES DE MONTBUI,,,41.624813,2.169967,41° 37' 29'',2° 10' 11'',,,,,,
42672,SUPER,https://www.bonarea.com/botiga/42672,"CL CARRUEZ, ESQUINA AV CANDEVANIA 5",ZUERA,,,41.86835,-0.789394,41° 52' 06'',-0° 47' 21'',,,,,,
42673,SUPER,https://www.bonarea.com/botiga/42673,AV BARCELONA 10,VILAFRANCA DEL PENEDES,,,41.345967,1.702137,41° 20' 45'',1° 42' 07'',,,,,,
42674,SUPER,https://www.bonarea.com/botiga/42674,AV BOULEVARD 9,CUARTE DE HUERVA,,,41.59284498213038,-0.9322178363800049,41° 35' 34'',-0° 55' 55'',,,,,,
42675,SUPER,https://www.bonarea.com/botiga/42675,CL SEQUIA 23,AITONA,,,41.49372006368586,0.4592987895011902,41° 29' 37'',0° 27' 33'',,,,,,
42676,SUPER,https://www.bonarea.com/botiga/42676,PS CANYELLAS 19,"ESPLUGA DE FRANCOLI, L'",,,41.39604686847082,1.103927493095398,41° 23' 45'',1° 06' 14'',,,,,,
42677,SUPER,https://www.bonarea.com/botiga/42677,CL SANT ANTONI 8,RIBA-ROJA D'EBRE,,,41.250886,0.488109,41° 15' 03'',0° 29' 17'',,,,,,
42679,SUPER,https://www.bonarea.com/botiga/42679,CL ANSELM CLAVE 10,ALMENAR,,,41.79356446190686,0.5701947212219238,41° 47' 36'',0° 34' 12'',,,,,,
42680,SUPER,https://www.bonarea.com/botiga/42680,CL REINA ELISENDA 12,BAGA,,,42.254603304160085,1.8625742197036743,42° 15' 16'',1° 51' 45'',,,,,,
42681,SUPER,https://www.bonarea.com/botiga/42681,AV DIPUTACIÓ 4,RODA DE TER,,,41.98457644941765,2.3097896575927734,41° 59' 04'',2° 18' 35'',,,,,,
42682,SUPER,https://www.bonarea.com/botiga/42682,CR DE PALAFRUGELL 5,TORROELLA DE MONTGRI,,,42.03811807899131,3.1275415420532227,42° 02' 17'',3° 07' 39'',,,,,,
42683,SUPER,https://www.bonarea.com/botiga/42683,PS SANT SALVADOR 1,SANTA COLOMA DE FARNERS,,,41.861301,2.663485,41° 51' 40'',2° 39' 48'',,,,,,
42684,SUPER,https://www.bonarea.com/botiga/42684,PL SANTA ANNA 10,ANGLESOLA,,,41.65835687384227,1.0841166973114014,41° 39' 30'',1° 05' 02'',,,,,,
42685,SUPER,https://www.bonarea.com/botiga/42685,CL SANTA FILOMENA 8,SANT LLORENÇ D'HORTONS,,,41.465788241293524,1.8249750137329102,41° 27' 56'',1° 49' 29'',,,,,,
42686,SUPER,https://www.bonarea.com/botiga/42686,CR DE RIBES 120,"FRANQUESES DEL VALLES, LES",,,41.630484111448425,2.2955739498138428,41° 37' 49'',2° 17' 44'',,,,,,
42687,SUPER,https://www.bonarea.com/botiga/42687,CL DOCTOR ROBERT 118,ALBATARREC,,,41.57104038460086,0.6034594774246216,41° 34' 15'',0° 36' 12'',,,,,,
42688,SUPER,https://www.bonarea.com/botiga/42688,CR JUIA 72,CELRA,,,42.026662613780175,2.8761649131774902,42° 01' 35'',2° 52' 34'',,,,,,
42689,SUPER,https://www.bonarea.com/botiga/42689,CL FOLCH I TORRAS 51,PIERA,,,41.522410984989236,1.7502593994140625,41° 31' 20'',1° 45' 00'',,,,,,
42691,SUPER,https://www.bonarea.com/botiga/42691,CL CAMPRODON 52-56 LOCAL 1,ARBUCIES,,,41.815234,2.516761,41° 48' 54'',2° 31' 00'',,,,,,
42692,SUPER,https://www.bonarea.com/botiga/42692,CR DEL MIRACLE 33,CARDONA,,,41.91148344165831,1.6786926984786987,41° 54' 41'',1° 40' 43'',,,,,,
42694,SUPER,https://www.bonarea.com/botiga/42694,CL MAJOR 72,NULES,,,39.85381785630485,-0.15472590923309326,39° 51' 13'',-0° 09' 17'',,,,,,
42695,SUPER,https://www.bonarea.com/botiga/42695,PL BARCELONA 2,CASTELLBELL I EL VILAR,,,41.62912484066363,1.8643712997436523,41° 37' 44'',1° 51' 51'',,,,,,
42696,SUPER,https://www.bonarea.com/botiga/42696,CR DE PUIGCERDA 64,VILANOVA DE LA BARCA,,,41.689009,0.728528,41° 41' 20'',0° 43' 42'',,,,,,
42697,SUPER,https://www.bonarea.com/botiga/42697,PS DOMENEC SERT 28,TARADELL,,,41.8745460194236,2.2864222526550293,41° 52' 28'',2° 17' 11'',,,,,,
42698,SUPER,https://www.bonarea.com/botiga/42698,AV JOSEP ANSELM CLAVE 44,SANT MARTI SARROCA,,,41.385597,1.613542,41° 23' 08'',1° 36' 48'',,,,,,
42699,SUPER,https://www.bonarea.com/botiga/42699,PZ BIENVENIDA ARGENSOLA 1,ALCORISA,,,40.892638,-0.383315,40° 53' 33'',-0° 22' 59'',,,,,,
42700,SUPER,https://www.bonarea.com/botiga/42700,CL DE LA FONT 19,GUISSONA,,,41.78600906226449,1.288447380065918,41° 47' 09'',1° 17' 18'',,,,,,
42701,SUPER,https://www.bonarea.com/botiga/42701,CL LA BASSA 24,"BORGES BLANQUES, LES",,,41.52025820117297,0.8679091930389404,41° 31' 12'',0° 52' 04'',,,,,,
42702,SUPER,https://www.bonarea.com/botiga/42702,AV. CORAZON DE JESUS 6,"VALL D'UIXO, LA",,,39.82331193732293,-0.2314317226409912,39° 49' 23'',-0° 13' 53'',,,,,,
42703,SUPER,https://www.bonarea.com/botiga/42703,CL PI I MARAGALL 44,LLEIDA,,,41.622035317904164,0.6270575523376465,41° 37' 19'',0° 37' 37'',,,,,,
42705,SUPER,https://www.bonarea.com/botiga/42705,CL ALFONS XIII 299,BADALONA,,,41.439085,2.2280511999999817,41° 26' 20'',2° 13' 40'',,,,,,
42706,SUPER,https://www.bonarea.com/botiga/42706,PZ DE LA COMA 13,CASSA DE LA SELVA,,,41.8888478,2.8762963000000354,41° 53' 19'',2° 52' 34'',,,,,,
42707,SUPER,https://www.bonarea.com/botiga/42707,CL GONZALEZ SOLESIO 4,SURIA,,,41.8308685,1.7514137000000574,41° 49' 51'',1° 45' 05'',,,,,,
42708,SUPER,https://www.bonarea.com/botiga/42708,CL JOSEP Mª PRAT 6,GIRONA,,,41.9950114,2.8039392,41° 59' 42'',2° 48' 14'',,,,,,
42709,SUPER,https://www.bonarea.com/botiga/42709,CL SAS 1,BARCELONA,,,41.4363362,2.20424909999997,41° 26' 10'',2° 12' 15'',,,,,,
42710,SUPER,https://www.bonarea.com/botiga/42710,AV CATALUNYA 88,MASQUEFA,,,41.5010925,1.811289200000033,41° 30' 03'',1° 48' 40'',,,,,,
42711,SUPER,https://www.bonarea.com/botiga/42711,CL CAMI REIAL 9,BETXI,,,39.92898659999999,-0.1988758999999618,39° 55' 44'',-0° 11' 55'',,,,,,
42712,SUPER,https://www.bonarea.com/botiga/42712,CL RIERA MIRO 43,REUS,,,41.15489251818133,1.112591028213501,41° 09' 17'',1° 06' 45'',,,,,,
42713,SUPER,https://www.bonarea.com/botiga/42713,CL MAYOR 54,CORELLA,,,42.1147757,-1.7868439,42° 06' 53'',-1° 47' 12'',,,,,,
42714,SUPER,https://www.bonarea.com/botiga/42714,AV PABLO RUBIO 12,CINTRUENIGO,,,42.0796595,-1.8048409,42° 04' 46'',-1° 48' 17'',,,,,,
42715,SUPER,https://www.bonarea.com/botiga/42715,AV SALVADOR ALLENDE 48,ZARAGOZA,,,41.6728651,-0.877029,41° 40' 22'',-0° 52' 37'',,,,,,
42716,SUPER,https://www.bonarea.com/botiga/42716,CL SALVADOR ESPRIU 12,MAÇANET DE LA SELVA,,,41.7764852,2.7313664,41° 46' 35'',2° 43' 52'',,,,,,
42717,SUPER,https://www.bonarea.com/botiga/42717,CL JUAN ANTONIO FERNANDEZ 28,TUDELA,,,42.0600062,-1.6042096,42° 03' 36'',-1° 36' 15'',,,,,,
42718,SUPER,https://www.bonarea.com/botiga/42718,PJ DE SAN FRANCISCO 8,ALFARO,,,42.1797268,-1.7507316,42° 10' 47'',-1° 45' 02'',,,,,,
42719,SUPER,https://www.bonarea.com/botiga/42719,CL ANTIC CAMÍ DE CALDES 7,"AMETLLA DEL VALLES, L'",,,41.6674,2.2623800000000074,41° 40' 02'',2° 15' 44'',,,,,,
42720,SUPER,https://www.bonarea.com/botiga/42720,PZ MAJOR 1,SANTA MARIA DE PALAUTORDERA,,,41.6927499,2.44422,41° 41' 33'',2° 26' 39'',,,,,,
42721,SUPER,https://www.bonarea.com/botiga/42721,LG RESIDENCIAL LA RIERA. CTRA SANT CEBRIA 28,SANT POL DE MAR,,,41.601723,2.6158397,41° 36' 06'',2° 36' 57'',,,,,,
42722,SUPER,https://www.bonarea.com/botiga/42722,CL TRIUNFANTE  55,MURCHANTE,,,42.0311033,-1.6543686999999636,42° 01' 51'',-1° 39' 15'',,,,,,
42723,SUPER,https://www.bonarea.com/botiga/42723,AV DEL CARMEN 30,RIBAFORADA,,,41.99665,-1.5118098,41° 59' 47'',-1° 30' 42'',,,,,,
42724,SUPER,https://www.bonarea.com/botiga/42724,PS DE RONDA 145,LLEIDA,,,41.62304340000001,0.6194567999999663,41° 37' 22'',0° 37' 10'',,,,,,
42725,SUPER,https://www.bonarea.com/botiga/42725,CL MERINDADES 20,CASTEJON,,,42.1701919,-1.6919853,42° 10' 12'',-1° 41' 31'',,,,,,
42726,SUPER,https://www.bonarea.com/botiga/42726,CL HERRERIAS 25,CALATORAO,,,41.5229145,-1.3467164,41° 31' 22'',-1° 20' 48'',,,,,,
42727,SUPER,https://www.bonarea.com/botiga/42727,CL IRURZUN 6,PERALTA,,,42.3387958,-1.7987371,42° 20' 19'',-1° 47' 55'',,,,,,
42728,SUPER,https://www.bonarea.com/botiga/42728,AV CAMI DELS PLANS 15,"PALLARESOS, ELS",,,41.1623364,1.2713939,41° 09' 44'',1° 16' 17'',,,,,,
42729,SUPER,https://www.bonarea.com/botiga/42729,CL SANT FELIU DE CODINES 3,BARCELONA,,,41.460505,2.180914,41° 27' 37'',2° 10' 51'',,,,,,
42730,SUPER,https://www.bonarea.com/botiga/42730,AV DE LOGROÑO 5 (barrio Casetas),CASETAS,,,41.7223026,-1.0344996,41° 43' 20'',-1° 02' 04'',,,,,,
42731,SUPER,https://www.bonarea.com/botiga/42731,AV CARRILET 31,REUS,,,41.1507779,1.1100203,41° 09' 02'',1° 06' 36'',,,,,,
42732,SUPER,https://www.bonarea.com/botiga/42732,AV COSTRA BRAVA  6,SANT ANTONI DE CALONGE,,,41.8459486,3.0994787,41° 50' 45'',3° 05' 58'',,,,,,
42733,SUPER,https://www.bonarea.com/botiga/42733,CL CONSTITUCION 6,GALLUR,,,41.8686357,-1.3175949,41° 52' 07'',-1° 19' 03'',,,,,,
42734,SUPER,https://www.bonarea.com/botiga/42734,CL GOTOR AISA 1,MALLEN,,,41.9002329,-1.4214225,41° 54' 00'',-1° 25' 17'',,,,,,
42735,SUPER,https://www.bonarea.com/botiga/42735,ROGER DE BELLFORT 14,REUS,,,41.15277400292032,1.099979281425476,41° 09' 09'',1° 05' 59'',,,,,,
42736,SUPER,https://www.bonarea.com/botiga/42736,MAJOR 33,SILS,,,41.8090169,2.7435414,41° 48' 32'',2° 44' 36'',,,,,,
42737,SUPER,https://www.bonarea.com/botiga/42737,CL IGNASI GAVIN 23,JUNEDA,,,41.54733,0.82698,41° 32' 50'',0° 49' 37'',,,,,,
42738,SUPER,https://www.bonarea.com/botiga/42738,CASTELLSAPERA 84,TERRASSA,,,41.576571,2.031917,41° 34' 35'',2° 01' 54'',,,,,,
42739,SUPER,https://www.bonarea.com/botiga/42739,AV DE SANT ANTONI 49,"MASSANA, LA",,,42.5435207,1.5169072,42° 32' 36'',1° 31' 00'',,,,,,
42740,SUPER,https://www.bonarea.com/botiga/42740,CL MIQUELA 18,BESCANO,,,41.9649058,2.737798,41° 57' 53'',2° 44' 16'',,,,,,
42741,SUPER,https://www.bonarea.com/botiga/42741,CL MAYOR 7,MAELLA,,,41.1222918,0.1398592,41° 07' 20'',0° 08' 23'',,,,,,
42742,SUPER,https://www.bonarea.com/botiga/42742,AV MONTSERRAT 31,SANT ESTEVE SESROVIRES,,,41.4941288,1.8734395,41° 29' 38'',1° 52' 24'',,,,,,
42743,SUPER,https://www.bonarea.com/botiga/42743,CL MAYOR 71-73,DAROCA,,,41.1140988,-1.4131,41° 06' 50'',-1° 24' 47'',,,,,,
42744,SUPER,https://www.bonarea.com/botiga/42744,AV TENOR FLETA 22,ZARAGOZA,,,41.6407227,-0.8837221,41° 38' 26'',-0° 53' 01'',,,,,,
42745,SUPER,https://www.bonarea.com/botiga/42745,AV DELS PAVOS 16,BLANES,,,41.6735413,2.7848938,41° 40' 24'',2° 47' 05'',,,,,,
42747,SUPER,https://www.bonarea.com/botiga/42747,AV CENTENARI AMADEU VIVES 44,COLLBATO,,,41.5673765,1.8257029,41° 34' 02'',1° 49' 32'',,,,,,
42748,SUPER,https://www.bonarea.com/botiga/42748,CL PAU CASALS 2,PUIG-REIG,,,41.97434,1.87905,41° 58' 27'',1° 52' 44'',,,,,,
42749,SUPER,https://www.bonarea.com/botiga/42749,CL MURALLA 42,MONTBLANC,,,41.3740350439015,1.164352297782898,41° 22' 26'',1° 09' 51'',,,,,,
42750,SUPER,https://www.bonarea.com/botiga/42750,PZ DOCTOR ROBERT 7,SANT FELIU DE CODINES,,,41.688225,2.165152,41° 41' 17'',2° 09' 54'',,,,,,
42751,SUPER,https://www.bonarea.com/botiga/42751,CL INDUSTRIA 56,ANGLES,,,41.9569293,2.6363645,41° 57' 24'',2° 38' 10'',,,,,,
42752,SUPER,https://www.bonarea.com/botiga/42752,CL ANTILLES 11,BARCELONA,,,41.42556,2.18845,41° 25' 32'',2° 11' 18'',,,,,,
42753,SUPER,https://www.bonarea.com/botiga/42753,CL FERNANDO MOLINE 27,"PUEBLA DE ALFINDEN, LA",,,41.6314359,-0.7523548,41° 37' 53'',-0° 45' 08'',,,,,,
42754,SUPER,https://www.bonarea.com/botiga/42754,"CR NACIONAL 340 KM 1215,50",SANT CUGAT SESGARRIGUES,,,41.35555,1.7431739,41° 21' 19'',1° 44' 35'',,,,,,
42755,SUPER,https://www.bonarea.com/botiga/42755,CL ISIDRE VILARO 38,CALAF,,,41.73177,1.51603,41° 43' 54'',1° 30' 57'',,,,,,
42756,SUPER,https://www.bonarea.com/botiga/42756,AV VICTORIANO MUÑOZ 24,"PONT DE SUERT, EL",,,42.4094811,0.7410422,42° 24' 34'',0° 44' 27'',,,,,,
42757,SUPER,https://www.bonarea.com/botiga/42757,CL TORRENT 54,MATARO,,,41.5393096,2.4414833,41° 32' 21'',2° 26' 29'',,,,,,
42758,SUPER,https://www.bonarea.com/botiga/42758,CL MINA DE LA CIUTAT 27,BARCELONA,,,41.4473163,2.1738615,41° 26' 50'',2° 10' 25'',,,,,,
42759,SUPER,https://www.bonarea.com/botiga/42759,CL MAYOR 65,CARIÑENA,,,41.3376776,-1.2240961,41° 20' 15'',-1° 13' 26'',,,,,,
42760,SUPER,https://www.bonarea.com/botiga/42760,ST CRISTOFOL 6,PONTS,,,41.9158023,1.1844869,41° 54' 56'',1° 11' 04'',,,,,,
42761,SUPER,https://www.bonarea.com/botiga/42761,AV NAVARRA 8,TARAZONA,,,41.9049395,-1.7244724,41° 54' 17'',-1° 43' 28'',,,,,,
42762,SUPER,https://www.bonarea.com/botiga/42762,CL ESTELLA 31,SAN ADRIAN,,,42.3344423,-1.9347295,42° 20' 03'',-1° 56' 05'',,,,,,
42763,SUPER,https://www.bonarea.com/botiga/42763,CL TEULERA 27,SANTA CRISTINA D'ARO,,,41.8119678,2.9982491,41° 48' 43'',2° 59' 53'',,,,,,
42764,SUPER,https://www.bonarea.com/botiga/42764,CL ROCOSA 15,SANT HILARI SACALM,,,41.8789766,2.5103586,41° 52' 44'',2° 30' 37'',,,,,,
42765,SUPER,https://www.bonarea.com/botiga/42765,PS CONSTITUCION 64,ARNEDO,,,42.2262176,-2.1025039,42° 13' 34'',-2° 06' 09'',,,,,,
42766,SUPER,https://www.bonarea.com/botiga/42766,RB GUIPUSCOA 140-142,BARCELONA,,,41.4213838,2.2041619,41° 25' 16'',2° 12' 14'',,,,,,
42767,SUPER,https://www.bonarea.com/botiga/42767,PZ LUIS BUÑUEL 2,MARIA DE HUERVA,,,41.5380381,-0.9968216,41° 32' 16'',-0° 59' 48'',,,,,,
42768,SUPER,https://www.bonarea.com/botiga/42768,CL. CAMI NOU 37,XIRIVELLA,,,39.4667981,-0.4274248,39° 28' 00'',-0° 25' 38'',,,,,,
42769,SUPER,https://www.bonarea.com/botiga/42769,CL CONDES DE ARAGON 12,ZARAGOZA,,,41.6392113,-0.9057741,41° 38' 21'',-0° 54' 20'',,,,,,
42770,SUPER,https://www.bonarea.com/botiga/42770,CL MARCELO USERA 86,MADRID,,,40.3859586,-3.7067852,40° 23' 09'',-3° 42' 24'',,,,,,
42771,SUPER,https://www.bonarea.com/botiga/42771,CL DEL PLA DE SANTA MARIA 180,VALLS,,,41.304691,1.2622573,41° 18' 16'',1° 15' 44'',,,,,,
42772,SUPER,https://www.bonarea.com/botiga/42772,AV FRANÇA  220,SARRIA DE TER,,,42.01855,2.82233,42° 01' 06'',2° 49' 20'',,,,,,
42773,SUPER,https://www.bonarea.com/botiga/42773,CL FONTANARS DELS ALFORINS 52,VALENCIA,,,39.4598383,-0.3938886,39° 27' 35'',-0° 23' 37'',,,,,,
42774,SUPER,https://www.bonarea.com/botiga/42774,CL SANT ISIDRE 39,RODA DE BARA,,,41.1830995,1.4559178,41° 10' 59'',1° 27' 21'',,,,,,
42775,SUPER,https://www.bonarea.com/botiga/42775,AV VILLALBA DE LUGO 4,QUART DE POBLET,,,39.4835484,-0.4481127,39° 29' 00'',-0° 26' 53'',,,,,,
42776,SUPER,https://www.bonarea.com/botiga/42776,CL ISLAS CANARIAS 130,VALENCIA,,,39.4624603,-0.3436704,39° 27' 44'',-0° 20' 37'',,,,,,
42777,SUPER,https://www.bonarea.com/botiga/42777,CL VINYES DE DALT 8-10,TORRES DE SEGRE,,,41.5331437,0.5143319,41° 31' 59'',0° 30' 51'',,,,,,
42778,SUPER,https://www.bonarea.com/botiga/42778,PZ MANUEL BERTRAND 10,MOLLERUSSA,,,41.6294257,0.8931629,41° 37' 45'',0° 53' 35'',,,,,,
42779,SUPER,https://www.bonarea.com/botiga/42779,CL VICTOR CATALA  8,COMA-RUGA,,,41.1829223,1.5233458,41° 10' 58'',1° 31' 24'',,,,,,
42780,SUPER,https://www.bonarea.com/botiga/42780,CL ANSELMO GASCON DE GOTOR 26,ZARAGOZA,,,41.6385079,-0.8891785,41° 38' 18'',-0° 53' 21'',,,,,,
42781,SUPER,https://www.bonarea.com/botiga/42781,AV DE VALENCIA 6,UTRILLAS,,,40.8128475,-0.8458098,40° 48' 46'',-0° 50' 44'',,,,,,
42782,SUPER,https://www.bonarea.com/botiga/42782,CL DEL LES TRES CREUS 66,SABADELL,,,41.546385,2.111253,41° 32' 46'',2° 06' 40'',,,,,,
42783,SUPER,https://www.bonarea.com/botiga/42783,CL GRAN VIA DE LES CORTS CATALANES 194,BARCELONA,,,41.3685556,2.141,41° 22' 06'',2° 08' 27'',,,,,,
42784,SUPER,https://www.bonarea.com/botiga/42784,CL DEL MIGDIA 12,ALTAFULLA,,,41.14076,1.36612,41° 08' 26'',1° 21' 58'',,,,,,
42785,SUPER,https://www.bonarea.com/botiga/42785,PS OLOT 62,GIRONA,,,41.9751088,2.8055741,41° 58' 30'',2° 48' 20'',,,,,,
42786,SUPER,https://www.bonarea.com/botiga/42786,AV DEL PUERTO 59,VALENCIA,,,39.4666433,-0.3543733,39° 27' 59'',-0° 21' 15'',,,,,,
42787,SUPER,https://www.bonarea.com/botiga/42787,CL TOLEDO 137,MADRID,,,40.4050072,-3.7118202,40° 24' 18'',-3° 42' 42'',,,,,,
42788,SUPER,https://www.bonarea.com/botiga/42788,CL VALLMAJOR 35,BARCELONA,,,41.40108,2.1386419,41° 24' 03'',2° 08' 19'',,,,,,
42789,SUPER,https://www.bonarea.com/botiga/42789,CL CLARA DEL REY 41,MADRID,,,40.4429897,-3.6700483,40° 26' 34'',-3° 40' 12'',,,,,,
42790,SUPER,https://www.bonarea.com/botiga/42790,AV CARDENAL TARANCON - ESQ. CR DE TORA S/N,SOLSONA,,,41.9932532,1.5142018,41° 59' 35'',1° 30' 51'',,,,,,
42791,SUPER,https://www.bonarea.com/botiga/42791,CL MARCELINO CAMACHO 38,MADRID,,,40.3870189,-3.7424973,40° 23' 13'',-3° 44' 32'',,,,,,
42792,SUPER,https://www.bonarea.com/botiga/42792,PS FERNANDO EL CATOLICO 42,ZARAGOZA,,,41.6400644,-0.8963081,41° 38' 24'',-0° 53' 46'',,,,,,
42793,SUPER,https://www.bonarea.com/botiga/42793,AV. JUAN XXIII 4,JACA,,,42.573403,-0.5486103,42° 34' 24'',-0° 32' 54'',,,,,,
42794,SUPER,https://www.bonarea.com/botiga/42794,CL LAGOS DE CORONAS 9-11,ZARAGOZA,,,41.6579159,-0.9329924,41° 39' 28'',-0° 55' 58'',,,,,,
42795,SUPER,https://www.bonarea.com/botiga/42795,FRANCESC MACIA  74,SANT BOI DE LLOBREGAT,,,41.339865,2.0432764,41° 20' 23'',2° 02' 35'',,,,,,
42796,SUPER,https://www.bonarea.com/botiga/42796,RD DE LA MAGDALENA 5,CASTELLO DE LA PLANA,,,39.9884638,-0.0417593,39° 59' 18'',-0° 02' 30'',,,,,,
42797,SUPER,https://www.bonarea.com/botiga/42797,PZ DE CATALUNYA 5,BELLVIS,,,41.671571,0.8179063,41° 40' 17'',0° 49' 04'',,,,,,
42798,SUPER,https://www.bonarea.com/botiga/42798,AV DIAGONAL 5,ILLUECA,,,41.5366752,-1.6276144,41° 32' 12'',-1° 37' 39'',,,,,,
42799,SUPER,https://www.bonarea.com/botiga/42799,CL REINA VICTORIA 13-15,PARLA,,,40.2347929,-3.7694244,40° 14' 05'',-3° 46' 09'',,,,,,
42800,SUPER,https://www.bonarea.com/botiga/42800,CL MAYOR 2-4,CASTELLO DE LA PLANA,,,39.9842199,-0.037481,39° 59' 03'',-0° 02' 14'',,,,,,
42801,SUPER,https://www.bonarea.com/botiga/42801,AV DE LA ALBUFERA 37,MADRID,,,40.3968462,-3.6658494,40° 23' 48'',-3° 39' 57'',,,,,,
42802,SUPER,https://www.bonarea.com/botiga/42802,CL PUJADA DEL CASTELL 16-18,FIGUERES,,,42.2671574,2.9594508,42° 16' 01'',2° 57' 34'',,,,,,
42804,SUPER,https://www.bonarea.com/botiga/42804,PASEO DE LAS DELICIAS 93,MADRID,,,40.3956273,-3.6942195,40° 23' 44'',-3° 41' 39'',,,,,,
42805,SUPER,https://www.bonarea.com/botiga/42805,AV CATALUNYA 7,ALFARRAS,,,41.8302953,0.5701348,41° 49' 49'',0° 34' 12'',,,,,,
42806,SUPER,https://www.bonarea.com/botiga/42806,CL CUARTEL 14,EPILA,,,41.5994076,-1.2827024,41° 35' 57'',-1° 16' 57'',,,,,,
42807,SUPER,https://www.bonarea.com/botiga/42807,CL PEDRO SAPUTO 20,ALMUDEVAR,,,42.0420894,-0.5821003,42° 02' 31'',-0° 34' 55'',,,,,,
42808,SUPER,https://www.bonarea.com/botiga/42808,AV OBISPO JOSE MARIA CONGET 26,TAUSTE,,,41.9186105,-1.2517946,41° 55' 06'',-1° 15' 06'',,,,,,
42809,SUPER,https://www.bonarea.com/botiga/42809,PZ DE SANTO DOMINGO 1-3,BORJA,,,41.833054,-1.5337094,41° 49' 58'',-1° 32' 01'',,,,,,
42810,SUPER,https://www.bonarea.com/botiga/42810,AV DEL PAIS VALENCIA 15,ALAQUAS,,,39.4559725,-0.4595681,39° 27' 21'',-0° 27' 34'',,,,,,
42811,SUPER,https://www.bonarea.com/botiga/42811,CL COLOM 23-29,SABADELL,,,41.5468426,2.10509,41° 32' 48'',2° 06' 18'',,,,,,
42812,SUPER,https://www.bonarea.com/botiga/42812,PS DE SANT JOAN 154,BARCELONA,,,41.4022082,2.1661913,41° 24' 07'',2° 09' 58'',,,,,,
42813,SUPER,https://www.bonarea.com/botiga/42813,CL FERMIN IRIGARAY 2,LOGROÑO,,,42.4640329,-2.4353577,42° 27' 50'',-2° 26' 07'',,,,,,
42814,SUPER,https://www.bonarea.com/botiga/42814,CL DE CAN GURRI (POL.IND.CAN VOLARD) 6,PARETS DEL VALLES,,,41.5669148,2.2441034,41° 34' 00'',2° 14' 38'',,,,,,
42815,SUPER,https://www.bonarea.com/botiga/42815,CL ALEMANYA 9-13,MATARO,,,41.5463206,2.4310166,41° 32' 46'',2° 25' 51'',,,,,,
42817,SUPER,https://www.bonarea.com/botiga/42817,CL CARRASCO I FORMIGUERA 57,ROSSELLO,,,41.6946055,0.5969167,41° 41' 40'',0° 35' 48'',,,,,,
42819,SUPER,https://www.bonarea.com/botiga/42819,PZ MANRIQUE DE LARA 6,MOLINA DE ARAGON,,,40.8423748,-1.8872867,40° 50' 32'',-1° 53' 14'',,,,,,
42820,SUPER,https://www.bonarea.com/botiga/42820,CL MOSSEN SEBASTIA TOSCAS 14,NAVARCLES,,,41.7510608,1.9031769,41° 45' 03'',1° 54' 11'',,,,,,
42821,SUPER,https://www.bonarea.com/botiga/42821,CL LA VIA 1,ZARAGOZA,,,41.6300018,-0.9079973,41° 37' 48'',-0° 54' 28'',,,,,,
42822,SUPER,https://www.bonarea.com/botiga/42822,CR LLAGOSTERA 7,CALDES DE MALAVELLA,,,41.8389469,2.8078483,41° 50' 20'',2° 48' 28'',,,,,,
42823,SUPER,https://www.bonarea.com/botiga/42823,CL LUDWIG VAN BEETHOVEN ESQUINA CL ISAAC ALBENIZ ,ZARAGOZA,,,41.6364587,-0.9456259,41° 38' 11'',-0° 56' 44'',,,,,,
42825,SUPER,https://www.bonarea.com/botiga/42825,CL FONDANDANA 7,AGRAMUNT,,,41.7844259,1.0957107,41° 47' 03'',1° 05' 44'',,,,,,
42911,SUPER,https://www.bonarea.com/botiga/42911,AV PRAT DE LA RIBA 12,REUS,,,41.15738860273716,1.1031174659729004,41° 09' 26'',1° 06' 11'',,,,,,
